# 2013 05 16 19 13 10.3  -07.07    110.01     13.0  2.7   0.0   0.0   0.875       265
 WOJI       22.00   1.000   P
 PCJI       28.30   1.000   P
 SWJI       30.70   1.000   P
 PWJI       34.30   1.000   P
 PWJI       60.20   1.000   S
# 2013 05 18 11 08 18.5  -09.62    112.33     10.0  4.3   0.0   0.0   1.133       266
 PWJI       27.90   1.000   P
 GMJI       28.50   1.000   P
 PCJI       30.40   1.000   P
 SWJI       32.30   1.000   P
 WOJI       36.60   1.000   P
 NGJI       41.40   1.000   P
 GRJI       43.60   1.000   P
 PWJI       47.10   1.000   S
# 2013 05 18 12 57 57.8  -08.60    111.46    106.0  3.2   0.0   0.0   0.538       267
 PWJI       17.80   1.000   P
 PCJI       17.90   1.000   P
 SWJI       20.10   1.000   P
 WOJI       20.70   1.000   P
 NGJI       24.40   1.000   P
 PCJI       30.70   1.000   S
 GRJI       31.10   1.000   P
 PWJI       31.40   1.000   S
 GMJI       32.70   1.000   P
 SWJI       35.60   1.000   S
# 2013 05 18 15 00 58.8  -06.76    110.70     11.0  3.0   0.0   0.0   0.691       268
 NGJI       18.80   1.000   P
 SWJI       24.50   1.000   P
 PCJI       25.10   1.000   P
 GRJI       29.60   1.000   P
 SWJI       44.50   1.000   S
 PCJI       44.80   1.000   S
# 2013 05 19 04 46 21.8  -08.47    111.56    109.0  3.6   0.0   0.0   0.392       269
 PWJI       17.50   1.000   P
 PCJI       18.30   1.000   P
 SWJI       20.00   1.000   P
 WOJI       20.90   1.000   P
 GRJI       30.80   1.000   P
 SWJI       34.60   1.000   S
 WOJI       35.90   1.000   S
 GRJI       53.70   1.000   S
# 2013 05 19 14 39 53.6  -08.76    111.06     25.0  2.1   0.0   0.0   0.282       270
 PCJI       12.30   1.000   P
 PWJI       16.70   1.000   P
 WOJI       16.80   1.000   P
 PCJI       21.40   1.000   S
 PWJI       30.00   1.000   S
 WOJI       30.10   1.000   S
# 2013 05 19 14 54 00.9  -09.16    111.47     10.0  2.4   0.0   0.0   0.679       271
 PCJI       17.10   1.000   P
 PWJI       19.20   1.000   P
 WOJI       24.40   1.000   P
 SWJI       43.70   1.000   P
 WOJI       43.90   1.000   S
# 2013 05 20 16 54 27.4  -10.25    111.47     11.0  4.3   0.0   0.0   0.620       272
 PCJI       33.10   1.000   P
 PWJI       36.10   1.000   P
 WOJI       39.70   1.000   P
 SWJI       40.30   1.000   P
 GMJI       43.90   1.000   P
 GRJI       53.70   1.000   P
 PWJI       60.80   1.000   S
# 2013 05 23 23 21 50.1  -09.08    111.28     50.0  4.1   0.0   0.0   1.229       273
 PCJI       14.80   1.000   P
 PWJI       18.80   1.000   P
 WOJI       21.00   1.000   P
 SWJI       22.90   1.000   P
 NGJI       30.20   1.000   P
 PWJI       32.20   1.000   S
 GMJI       34.60   1.000   P
 GRJI       38.60   1.000   P
 SWJI       41.30   1.000   S
# 2013 05 25 15 38 34.5  -08.98    110.48     17.0  3.9   0.0   0.0   0.894       274
 WOJI       21.30   1.000   P
 PWJI       26.40   1.000   P
 SWJI       29.00   1.000   P
 NGJI       33.60   1.000   P
 WOJI       38.10   1.000   S
 GRJI       44.30   1.000   P
 PWJI       46.70   1.000   S
 GMJI       47.20   1.000   P
 SWJI       51.80   1.000   S
# 2013 05 25 17 05 18.5  -11.16    110.46     34.0  4.9   0.0   0.0   1.441       275
 PWJI       48.50   1.000   P
 WOJI       48.70   1.000   P
 SWJI       52.80   1.000   P
 NGJI       58.30   1.000   P
 GMJI       60.20   1.000   P
 GRJI       67.10   1.000   P
 WOJI       85.30   1.000   S
 PWJI       85.40   1.000   S
# 2013 05 28 20 24 55.4  -10.86    111.65     10.0  4.3   0.0   0.0   0.986       276
 WOJI       47.90   1.000   P
 SWJI       48.80   1.000   P
 GMJI       49.40   1.000   P
 NGJI       56.60   1.000   P
 GRJI       62.20   1.000   P
 GMJI       85.60   1.000   S
 WOJI       87.00   1.000   S
 GRJI      109.80   1.000   S
# 2013 06 03 03 53 21.8  -09.12    110.41     17.0  3.4   0.0   0.0   0.747       277
 WOJI       24.40   1.000   P
 PWJI       28.00   1.000   P
 SWJI       31.70   1.000   P
 NGJI       34.60   1.000   P
 PWJI       49.50   1.000   S
 SWJI       55.90   1.000   S
# 2013 06 03 06 21 11.4  -08.42    110.60     53.0  2.9   0.0   0.0   0.340       278
 WOJI       15.10   1.000   P
 PWJI       20.60   1.000   P
 SWJI       22.20   1.000   P
# 2013 06 14 11 26 51.1  -09.01    110.52     16.0  4.7   0.0   0.0   1.191       279
 WOJI       22.40   1.000   P
 PWJI       27.20   1.000   P
 SWJI       30.10   1.000   P
 NGJI       33.80   1.000   P
 WOJI       37.50   1.000   S
 GRJI       45.30   1.000   P
# 2013 06 15 10 04 58.7  -08.94    111.86     78.0  3.0   0.0   0.0   0.762       280
 PWJI       16.60   1.000   P
 SWJI       21.30   1.000   P
 WOJI       25.10   1.000   P
 NGJI       25.90   1.000   P
 GMJI       29.40   1.000   P
 PWJI       30.40   1.000   S
 SWJI       38.30   1.000   S
 WOJI       43.40   1.000   S
# 2013 06 17 09 36 42.9  -08.95    111.33     60.0  3.5   0.0   0.0   1.182       281
 PWJI       16.60   1.000   P
 WOJI       18.80   1.000   P
 SWJI       20.40   1.000   P
 NGJI       27.60   1.000   P
 PWJI       30.00   1.000   S
 GMJI       32.10   1.000   P
 WOJI       33.40   1.000   S
# 2013 06 21 17 36 48.3  -08.55    110.66     10.0  3.4   0.0   0.0   0.973       282
 PWJI       21.40   1.000   P
 SWJI       23.50   1.000   P
 NGJI       27.40   1.000   P
# 2013 06 23 09 11 54.5  -08.75    111.80     63.0  3.7   0.0   0.0   0.626       283
 PWJI       14.50   1.000   P
 SWJI       18.20   1.000   P
 WOJI       21.30   1.000   P
 PWJI       25.00   1.000   S
 NGJI       25.30   1.000   P
 GRJI       30.40   1.000   P
 SWJI       31.90   1.000   S
 WOJI       37.60   1.000   S
# 2013 06 28 07 13 11.8  -08.33    111.37    113.0  3.4   0.0   0.0   0.853       284
 PWJI       17.40   1.000   P
 SWJI       19.00   1.000   P
 WOJI       19.10   1.000   P
 NGJI       23.00   1.000   P
 WOJI       34.00   1.000   S
 GMJI       35.50   1.000   P
 NGJI       37.20   1.000   S
 GRJI       54.30   1.000   P
 GMJI       58.80   1.000   S
# 2013 07 04 19 10 00.1  -08.79    112.54     60.0  3.5   0.0   0.0   0.535       285
 PWJI       18.00   1.000   P
 SWJI       21.90   1.000   P
 NGJI       28.90   1.000   P
 WOJI       29.40   1.000   P
 GRJI       30.50   1.000   P
 PWJI       31.60   1.000   S
 SWJI       38.60   1.000   S
 WOJI       51.60   1.000   S
# 2013 07 08 13 27 18.7  -09.03    110.48     10.0  3.7   0.0   0.0   1.124       286
 WOJI       24.90   1.000   P
 PWJI       27.20   1.000   P
 SWJI       31.00   1.000   P
 NGJI       35.30   1.000   P
 WOJI       39.20   1.000   S
 GMJI       47.70   1.000   P
 SWJI       53.60   1.000   S
# 2013 07 09 01 55 55.1  -08.66    110.44     48.0  3.9   0.0   0.0   1.016       287
 WOJI       16.80   1.000   P
 PWJI       23.90   1.000   P
 SWJI       26.20   1.000   P
 NGJI       26.50   1.000   P
 WOJI       29.30   1.000   S
 PWJI       39.80   1.000   S
 SWJI       46.70   1.000   S
 NGJI       47.50   1.000   S
# 2013 07 15 15 00 17.9  -09.20    111.99     33.0  4.9   0.0   0.0   1.563       288
 PWJI       19.00   1.000   P
 SWJI       23.20   1.000   P
 WOJI       27.30   1.000   P
 PWJI       30.90   1.000   S
 NGJI       32.50   1.000   P
 GRJI       36.30   1.000   P
 NGJI       55.90   1.000   S
# 2013 07 21 18 14 30.4  -09.56    112.89     29.0  3.6   0.0   0.0   0.949       289
 GMJI       23.00   1.000   P
 PWJI       28.70   1.000   P
 SWJI       32.60   1.000   P
 WOJI       39.10   1.000   P
 GMJI       40.50   1.000   S
 NGJI       42.00   1.000   P
 WOJI       70.30   1.000   S
# 2013 07 21 23 24 07.7  -08.56    112.80    127.0  3.5   0.0   0.0   0.364       290
 GMJI       20.50   1.000   P
 PWJI       23.40   1.000   P
 SWJI       25.60   1.000   P
 GRJI       29.80   1.000   P
 WOJI       33.90   1.000   P
 PWJI       41.20   1.000   S
 SWJI       46.60   1.000   S
# 2013 07 29 09 20 28.9  -10.38    112.00     10.0  4.2   0.0   0.0   0.697       291
 PWJI       37.00   1.000   P
 GMJI       41.40   1.000   P
 SWJI       41.90   1.000   P
 GMJI       72.80   1.000   S
 WOJI       78.00   1.000   P
# 2013 08 01 06 01 35.1  -08.98    110.40     10.0  3.5   0.0   0.0   0.434       292
 WOJI       23.00   1.000   P
 PWJI       28.00   1.000   P
# 2013 08 01 06 34 02.9  -08.56    110.54     89.0  2.9   0.0   0.0   0.679       293
 WOJI       18.70   1.000   P
 PWJI       23.60   1.000   P
 SWJI       26.40   1.000   P
 WOJI       33.10   1.000   S
 PWJI       40.20   1.000   S
 SWJI       44.50   1.000   S
# 2013 08 02 15 19 39.4  -08.16    112.94    143.0  3.7   0.0   0.0   0.792       294
 SWJI       26.40   1.000   P
 PWJI       26.50   1.000   P
 GRJI       27.20   1.000   P
 NGJI       30.20   1.000   P
 WOJI       35.90   1.000   P
 PWJI       45.80   1.000   S
 SWJI       47.30   1.000   S
 GRJI       48.60   1.000   S
# 2013 08 03 03 30 31.3  -08.76    111.76     54.0  3.4   0.0   0.0   0.649       295
 PWJI       14.40   1.000   P
 SWJI       17.90   1.000   P
 WOJI       20.40   1.000   P
 PWJI       23.70   1.000   S
 NGJI       24.60   1.000   P
 SWJI       31.60   1.000   S
 WOJI       36.60   1.000   S
 NGJI       42.00   1.000   S
# 2013 08 08 10 46 01.2  -08.86    110.87     26.0  5.4   0.0   0.0   1.352       296
 NGJI       27.10   1.000   P
 GRJI       38.70   1.000   P
 NGJI       48.30   1.000   S
# 2013 08 09 06 48 41.1  -08.84    110.87     10.0  3.7   0.0   0.0   0.961       297
 WOJI       18.10   1.000   P
 PWJI       21.00   1.000   P
 SWJI       24.20   1.000   P
 NGJI       29.60   1.000   P
 GRJI       41.00   1.000   P
# 2013 08 11 07 05 09.5  -08.03    110.45     10.0  2.8   0.0   0.0   0.514       298
 WOJI       10.20   1.000   P
 WOJI       18.10   1.000   S
 SWJI       24.10   1.000   P
 PWJI       24.90   1.000   P
 PWJI       42.00   1.000   S
# 2013 08 14 10 21 15.6  -08.68    110.94     10.0  3.3   0.0   0.0   0.714       299
 WOJI       15.70   1.000   P
 PWJI       18.90   1.000   P
 SWJI       22.00   1.000   P
 WOJI       27.30   1.000   S
 NGJI       45.20   1.000   P
# 2013 09 01 20 31 53.3  -10.54    112.20     16.0  4.9   0.0   0.0   0.472       300
 PCJI       40.00   1.000   P
 SWJI       44.20   1.000   P
 WOJI       46.70   1.000   P
 NGJI       50.40   1.000   P
 GRJI       56.30   1.000   P
 PCJI       72.00   1.000   S
 WOJI       82.60   1.000   S
 GRJI       98.10   1.000   S
# 2013 09 11 06 36 26.9  -08.82    110.62     24.0  3.1   0.0   0.0   0.322       301
 PCJI       15.60   1.000   P
 WOJI       18.80   1.000   P
 PWJI       23.40   1.000   P
 SWJI       26.20   1.000   P
 WOJI       32.60   1.000   S
# 2013 09 12 02 09 23.9  -09.00    110.75     10.0  3.3   0.0   0.0   0.616       302
 PCJI       16.40   1.000   P
 WOJI       22.90   1.000   P
 PWJI       24.00   1.000   P
 SWJI       28.10   1.000   P
 PCJI       29.20   1.000   S
 PWJI       41.90   1.000   S
 SWJI       49.70   1.000   S
# 2013 09 14 16 35 23.1  -09.06    110.19     10.0  3.6   0.0   0.0   1.585       303
 PCJI       22.30   1.000   P
 WOJI       25.20   1.000   P
 PWJI       31.10   1.000   P
 SWJI       34.30   1.000   P
 NGJI       38.80   1.000   P
 WOJI       43.80   1.000   S
# 2013 09 25 07 21 09.5  -09.15    111.24     18.0  4.0   0.0   0.0   0.980       304
 PCJI       17.70   1.000   P
 PWJI       21.80   1.000   P
 WOJI       23.70   1.000   P
 SWJI       25.90   1.000   P
 PCJI       28.90   1.000   S
 NGJI       31.20   1.000   P
 PWJI       35.90   1.000   S
 WOJI       41.10   1.000   S
 SWJI       45.50   1.000   S
# 2013 09 26 07 46 20.1  -07.88    111.46     10.0  3.4   0.0   0.0   0.819       305
 SWJI        7.70   1.000   P
 PWJI        9.20   1.000   P
 PCJI       10.10   1.000   P
 WOJI       10.20   1.000   P
 NGJI       10.90   1.000   P
 SWJI       12.90   1.000   S
 PWJI       16.10   1.000   S
 PCJI       17.10   1.000   S
 WOJI       17.40   1.000   S
 NGJI       19.50   1.000   S
 GRJI       24.90   1.000   P
 GRJI       43.00   1.000   S
# 2013 10 01 01 34 00.1  -08.93    110.42     23.0  3.4   0.0   0.0   0.851       306
 PCJI       18.20   1.000   P
 WOJI       21.90   1.000   P
 PWJI       26.90   1.000   P
 SWJI       30.10   1.000   P
 NGJI       31.40   1.000   P
 PCJI       32.10   1.000   S
 WOJI       37.60   1.000   S
 GMJI       47.00   1.000   P
# 2013 10 01 04 04 52.4  -09.11    110.57     28.0  3.5   0.0   0.0   0.373       307
 PCJI       19.70   1.000   P
 WOJI       22.10   1.000   P
 PWJI       24.50   1.000   P
 SWJI       30.00   1.000   P
 PCJI       33.60   1.000   S
 WOJI       39.90   1.000   S
# 2013 10 03 07 43 04.5  -08.40    110.41     40.0  3.5   0.0   0.0   0.944       308
 WOJI       14.10   1.000   P
 PCJI       14.90   1.000   P
 PWJI       24.00   1.000   P
 SWJI       24.20   1.000   P
 PCJI       25.10   1.000   S
 WOJI       26.30   1.000   S
 PWJI       41.50   1.000   S
 SWJI       45.10   1.000   S
# 2013 10 05 11 10 21.9  -08.91    112.49     34.0  5.0   0.0   0.0   0.806       309
 PWJI       17.90   1.000   P
 SWJI       22.00   1.000   P
 PCJI       24.20   1.000   P
 WOJI       29.50   1.000   P
 NGJI       30.80   1.000   P
 GRJI       30.90   1.000   P
 PWJI       32.50   1.000   S
 PCJI       41.80   1.000   S
 WOJI       51.60   1.000   S
# 2013 10 07 06 02 02.7  -11.38    111.89     10.0  4.4   0.0   0.0   0.832       310
 PCJI       51.70   1.000   P
 SWJI       56.60   1.000   P
 PCJI       90.00   1.000   S
# 2013 10 08 08 51 49.5  -08.97    111.03     28.0  3.6   0.0   0.0   0.823       311
 PCJI       15.00   1.000   P
 PWJI       21.00   1.000   P
 SWJI       24.60   1.000   P
 PCJI       25.50   1.000   S
 SWJI       42.60   1.000   S
# 2013 10 10 06 23 12.1  -11.01    112.04     14.0  4.4   0.0   0.0   0.610       312
 PWJI       43.80   1.000   P
 PCJI       45.10   1.000   P
 GMJI       48.00   1.000   P
 SWJI       50.40   1.000   P
 WOJI       51.20   1.000   P
 NGJI       56.70   1.000   P
 GMJI       84.90   1.000   S
 WOJI       93.00   1.000   S
# 2013 10 19 11 12 01.5  -08.42    110.28     64.0  3.3   0.0   0.0   0.632       313
 WOJI       16.10   1.000   P
 PCJI       18.10   1.000   P
 PWJI       25.50   1.000   P
 SWJI       26.50   1.000   P
 WOJI       28.90   1.000   S
 PCJI       32.00   1.000   S
 PWJI       44.50   1.000   S
 SWJI       47.20   1.000   S
# 2013 10 20 12 13 56.9  -08.96    111.90     57.0  3.0   0.0   0.0   0.807       314
 PWJI       16.10   1.000   P
 PCJI       17.90   1.000   P
 SWJI       20.60   1.000   P
 WOJI       24.80   1.000   P
 NGJI       27.70   1.000   P
 PWJI       28.10   1.000   S
 PCJI       31.10   1.000   S
 WOJI       43.00   1.000   S
# 2013 10 22 18 38 20.2  -08.56    111.75    112.0  3.1   0.0   0.0   0.737       315
 PWJI       18.40   1.000   P
 PCJI       20.10   1.000   P
 SWJI       21.00   1.000   P
 WOJI       23.10   1.000   P
 PWJI       31.40   1.000   S
 PCJI       34.00   1.000   S
 SWJI       35.90   1.000   S
 WOJI       39.20   1.000   S
# 2013 10 24 08 21 02.1  -08.72    111.46     25.0  4.1   0.0   0.0   0.630       316
 PCJI       12.30   1.000   P
 SWJI       18.80   1.000   P
 WOJI       18.90   1.000   P
 NGJI       23.40   1.000   P
 WOJI       32.20   1.000   S
 GMJI       32.20   1.000   P
# 2013 11 02 03 19 13.4  -08.60    111.05     12.0  3.0   0.0   0.0   0.450       317
 PCJI        9.30   1.000   P
 WOJI       15.00   1.000   P
 PCJI       16.40   1.000   S
 PWJI       16.60   1.000   P
 SWJI       19.80   1.000   P
 NGJI       24.20   1.000   P
 WOJI       25.90   1.000   S
 SWJI       36.10   1.000   S
# 2013 11 04 11 29 44.3  -08.89    110.23     19.0  3.6   0.0   0.0   0.873       318
 PCJI       19.80   1.000   P
 WOJI       21.30   1.000   P
 PWJI       29.40   1.000   P
 SWJI       32.10   1.000   P
 NGJI       34.30   1.000   P
 WOJI       38.70   1.000   S
 GMJI       49.50   1.000   P
 SWJI       55.70   1.000   S
# 2013 11 04 11 32 51.2  -08.94    110.24     28.0  3.8   0.0   0.0   1.036       319
 PCJI       19.60   1.000   P
 WOJI       21.80   1.000   P
 PWJI       28.50   1.000   P
 SWJI       31.20   1.000   P
 NGJI       34.80   1.000   P
 WOJI       37.80   1.000   S
 GMJI       49.10   1.000   P
 PWJI       49.90   1.000   S
 SWJI       54.80   1.000   S
 GMJI       86.20   1.000   S
# 2013 11 04 16 53 22.4  -08.41    111.54     19.0  2.6   0.0   0.0   0.997       320
 PWJI        8.00   1.000   P
 PCJI        8.60   1.000   P
 SWJI       12.70   1.000   P
 WOJI       15.90   1.000   P
 PWJI       16.20   1.000   S
 PCJI       16.50   1.000   S
 SWJI       23.80   1.000   S
 WOJI       29.20   1.000   S
 GRJI       29.50   1.000   P
# 2013 11 05 02 56 41.1  -08.83    110.70     10.0  2.8   0.0   0.0   0.540       321
 PCJI       15.70   1.000   P
 WOJI       18.90   1.000   P
 PWJI       23.60   1.000   P
 SWJI       26.20   1.000   P
 WOJI       34.00   1.000   S
# 2013 11 07 06 34 17.7  -07.43    111.74     10.0  3.8   0.0   0.0   1.226       322
 NGJI        7.30   1.000   P
 SWJI        9.10   1.000   P
 NGJI       11.20   1.000   S
 SWJI       12.00   1.000   S
 PWJI       13.60   1.000   P
 GRJI       17.10   1.000   P
 PCJI       18.90   1.000   P
 PWJI       23.70   1.000   S
 GRJI       29.50   1.000   S
 PCJI       32.10   1.000   S
 GMJI       33.10   1.000   P
# 2013 11 08 09 14 04.9  -09.08    110.21     32.0  3.8   0.0   0.0   0.298       323
 PWJI       28.70   1.000   P
 SWJI       31.60   1.000   P
 NGJI       32.70   1.000   P
# 2013 11 12 20 48 08.4  -08.61    112.55     83.0  3.8   0.0   0.0   0.833       324
 PWJI       18.80   1.000   P
 SWJI       22.20   1.000   P
 PCJI       22.90   1.000   P
 WOJI       29.60   1.000   P
 PWJI       32.80   1.000   S
 WOJI       51.70   1.000   S
# 2013 11 13 11 02 26.8  -08.65    110.63     10.0  3.0   0.0   0.0   0.245       325
 PCJI       14.00   1.000   P
 WOJI       17.00   1.000   P
 PWJI       22.80   1.000   P
 SWJI       25.80   1.000   P
# 2013 11 14 09 14 00.9  -08.77    112.47     46.0  3.5   0.0   0.0   0.603       326
 PWJI       17.40   1.000   P
 GMJI       18.10   1.000   P
 SWJI       21.60   1.000   P
 PCJI       22.80   1.000   P
 WOJI       28.60   1.000   P
 SWJI       37.60   1.000   S
 WOJI       49.70   1.000   S
# 2013 11 14 11 45 43.9  -08.00    110.44     10.0  3.7   0.0   0.0   1.015       327
 WOJI        9.70   1.000   P
 PCJI       13.90   1.000   P
 PWJI       23.60   1.000   P
 NGJI       23.90   1.000   P
 PCJI       24.70   1.000   S
 GMJI       49.10   1.000   P
# 2013 11 21 19 17 03.7  -09.39    110.08     13.0  3.5   0.0   0.0   0.413       328
 WOJI       30.00   1.000   P
 PWJI       35.20   1.000   P
 SWJI       38.00   1.000   P
 WOJI       52.60   1.000   S
 PWJI       60.80   1.000   S
# 2013 11 21 21 22 15.4  -09.11    110.18     10.0  3.1   0.0   0.0   0.940       329
 WOJI       26.20   1.000   P
 PWJI       30.40   1.000   P
 SWJI       35.00   1.000   P
 SWJI       60.10   1.000   S
# 2013 11 23 01 27 18.6  -09.07    111.20     47.0  4.6   0.0   0.0   0.574       330
 PWJI       18.70   1.000   P
 WOJI       20.40   1.000   P
 SWJI       22.80   1.000   P
 PWJI       31.90   1.000   S
 GRJI       38.20   1.000   P
# 2013 11 26 11 29 51.9  -09.44    112.86     10.0  4.1   0.0   0.0   0.629       331
 GMJI       22.60   1.000   P
 PWJI       29.20   1.000   P
 SWJI       34.30   1.000   P
 PWJI       50.60   1.000   S
# 2013 12 01 13 58 57.2  -08.92    111.97     10.0  4.1   0.0   0.0   1.213       332
 SNJI       22.50   1.000   P
 SNJI       37.40   1.000   S
# 2013 12 07 05 41 42.8  -08.86    110.44     10.0  3.4   0.0   0.0   0.663       333
 WOJI       21.00   1.000   P
 PWJI       27.30   1.000   P
 SWJI       29.70   1.000   P
 NGJI       32.50   1.000   P
 WOJI       36.30   1.000   S
 PWJI       48.20   1.000   S
 SWJI       52.70   1.000   S
# 2013 12 12 09 01 08.1  -08.49    112.77    109.0  2.8   0.0   0.0   0.308       334
 GMJI       19.00   1.000   P
 PWJI       21.80   1.000   P
 SWJI       24.40   1.000   P
 GMJI       34.30   1.000   S
 PWJI       38.40   1.000   S
 SWJI       41.90   1.000   S
