# 2013 01 13 03 13 51.3  -09.62    112.84     10.0  4.6   0.0   0.0   1.045       196
 GMJI       24.50   1.000   P
 PWJI       30.90   1.000   P
 SWJI       35.00   1.000   P
 PCJI       35.10   1.000   P
 GRJI       43.80   1.000   P
 NGJI       44.60   1.000   P
 TBJI       48.10   1.000   P
# 2013 01 14 07 36 11.3  -09.49    112.87     11.0  4.5   0.0   0.0   0.705       197
 GMJI       23.20   1.000   P
 PWJI       29.80   1.000   P
 SWJI       34.20   1.000   P
 PCJI       34.30   1.000   P
 WOJI       40.40   1.000   P
 GMJI       41.40   1.000   S
 GRJI       43.60   1.000   P
 TBJI       45.80   1.000   P
 PCJI       62.10   1.000   S
 SWJI       62.30   1.000   S
 WOJI       71.40   1.000   S
# 2013 01 14 08 34 46.4  -09.47    112.94     12.0  3.3   0.0   0.0   0.178       198
 GMJI       22.90   1.000   P
 PWJI       28.50   1.000   P
 SWJI       34.10   1.000   P
 PCJI       35.40   1.000   P
 GMJI       40.60   1.000   S
 PWJI       50.70   1.000   S
# 2013 01 16 22 41 39.8  -11.42    112.56     34.0  4.5   0.0   0.0   0.965       199
 GMJI       48.20   1.000   P
 PWJI       49.80   1.000   P
 PCJI       50.10   1.000   P
 SWJI       54.50   1.000   P
 GRJI       64.20   1.000   P
 GMJI       85.50   1.000   S
 PWJI       89.30   1.000   S
# 2013 01 17 03 45 45.3  -10.13    111.77     10.0  3.6   0.0   0.0   0.898       200
 PCJI       33.20   1.000   P
 PWJI       34.20   1.000   P
 SWJI       38.90   1.000   P
 NGJI       44.40   1.000   P
 PCJI       59.30   1.000   S
 SWJI       70.60   1.000   S
# 2013 01 17 19 22 25.1  -08.12    112.51     17.0  2.3   0.0   0.0   0.786       201
 PWJI       14.80   1.000   P
 SWJI       15.90   1.000   P
 NGJI       21.60   1.000   P
 PWJI       24.10   1.000   S
 PCJI       24.90   1.000   P
 SWJI       28.80   1.000   S
 NGJI       39.90   1.000   S
 PCJI       40.40   1.000   S
# 2013 01 18 20 53 47.4  -08.88    112.86     22.0  3.2   0.0   0.0   0.446       202
 GMJI       16.30   1.000   P
 PWJI       22.20   1.000   P
 SWJI       26.10   1.000   P
 PWJI       38.80   1.000   S
# 2013 01 20 16 33 45.1  -08.77    111.36     39.0  4.0   0.0   0.0   0.678       203
 PCJI       11.90   1.000   P
 PWJI       14.60   1.000   P
 WOJI       17.80   1.000   P
 SWJI       18.90   1.000   P
 PCJI       22.10   1.000   S
 NGJI       23.80   1.000   P
 PWJI       27.00   1.000   S
 WOJI       30.90   1.000   S
 GMJI       33.00   1.000   P
 SWJI       33.40   1.000   S
 GRJI       33.60   1.000   P
# 2013 01 22 23 53 50.5  -08.79    110.55     10.0  3.0   0.0   0.0   0.347       204
 PCJI       16.20   1.000   P
 WOJI       19.00   1.000   P
 PWJI       25.40   1.000   P
 SWJI       28.20   1.000   P
 PCJI       28.70   1.000   S
 WOJI       33.80   1.000   S
 SWJI       49.60   1.000   S
# 2013 01 23 06 51 12.1  -08.83    110.46     17.0  3.2   0.0   0.0   0.746       205
 PCJI       17.70   1.000   P
 PWJI       26.60   1.000   P
 PCJI       30.10   1.000   S
 WOJI       35.10   1.000   P
 PWJI       45.40   1.000   S
# 2013 01 23 14 26 43.5  -10.55    112.34     10.0  3.8   0.0   0.0   0.849       206
 PWJI       40.20   1.000   P
 GMJI       40.30   1.000   P
 PCJI       40.30   1.000   P
 GMJI       72.70   1.000   S
 PCJI       73.60   1.000   S
# 2013 01 28 05 57 40.9  -06.91    112.54     10.0  2.8   0.0   0.0   1.423       207
 GRJI        1.50   1.000   P
 GRJI        5.00   1.000   S
 TBJI       12.70   1.000   P
 SWJI       21.30   1.000   P
 PWJI       22.90   1.000   P
 TBJI       22.90   1.000   S
 NGJI       23.20   1.000   P
 PCJI       32.00   1.000   P
# 2013 01 31 03 10 06.6  -09.25    111.03     88.0  3.6   0.0   0.0   0.925       208
 PCJI       19.60   1.000   P
 PWJI       24.50   1.000   P
 WOJI       24.60   1.000   P
 SWJI       28.30   1.000   P
 NGJI       31.20   1.000   P
 PCJI       34.40   1.000   S
 GMJI       39.00   1.000   P
 PWJI       43.10   1.000   S
 WOJI       43.50   1.000   S
# 2013 02 01 12 38 51.4  -09.23    112.94     39.0  3.3   0.0   0.0   0.637       209
 GMJI       18.30   1.000   P
 PWJI       25.40   1.000   P
 PCJI       29.60   1.000   P
 SWJI       30.00   1.000   P
 GMJI       32.80   1.000   S
 WOJI       37.60   1.000   P
 PWJI       43.50   1.000   S
 SWJI       53.20   1.000   S
 PCJI       57.20   1.000   S
 WOJI       67.70   1.000   S
# 2013 02 01 14 32 43.6  -08.05    110.91    173.0  3.6   0.0   0.0   0.511       210
 PCJI       24.20   1.000   P
 WOJI       24.20   1.000   P
 NGJI       26.70   1.000   P
 SWJI       27.00   1.000   P
 PWJI       27.30   1.000   P
 PCJI       42.40   1.000   S
 WOJI       42.60   1.000   S
 GMJI       42.90   1.000   P
 SWJI       46.90   1.000   S
 PWJI       48.10   1.000   S
 GMJI       76.20   1.000   S
# 2013 02 02 03 47 03.2  -09.53    112.93     10.0  3.9   0.0   0.0   1.290       211
 GMJI       22.60   1.000   P
 PWJI       30.30   1.000   P
 SWJI       33.40   1.000   P
 PCJI       34.60   1.000   P
 GRJI       43.90   1.000   P
 NGJI       44.70   1.000   P
# 2013 02 02 10 17 17.6  -09.33    112.99     10.0  3.8   0.0   0.0   1.661       212
 PWJI       30.10   1.000   P
 SWJI       33.80   1.000   P
 PCJI       33.90   1.000   P
 WOJI       39.20   1.000   P
# 2013 02 02 10 23 15.2  -09.57    112.89     13.0  3.9   0.0   0.0   0.371       213
 PCJI       34.90   1.000   P
 GRJI       42.60   1.000   P
# 2013 02 02 11 54 04.1  -09.69    112.92     10.0  4.6   0.0   0.0   1.083       214
 PWJI       31.80   1.000   P
 SWJI       35.70   1.000   P
 PCJI       36.10   1.000   P
 WOJI       42.60   1.000   P
 GRJI       45.00   1.000   P
 NGJI       45.50   1.000   P
 TBJI       48.80   1.000   P
# 2013 02 04 08 58 41.2  -08.69    111.19     40.0  3.2   0.0   0.0   0.645       215
 PCJI       11.00   1.000   P
 PWJI       16.00   1.000   P
 WOJI       16.30   1.000   P
 SWJI       19.90   1.000   P
 NGJI       21.80   1.000   P
 GMJI       34.80   1.000   P
# 2013 02 05 10 08 10.8  -09.09    110.58     30.0  4.6   0.0   0.0   1.106       216
 PCJI       17.10   1.000   P
 WOJI       21.90   1.000   P
 PWJI       25.60   1.000   P
 SWJI       29.00   1.000   P
 PCJI       30.70   1.000   S
 WOJI       38.40   1.000   S
 GMJI       44.00   1.000   P
 GRJI       44.80   1.000   P
 PWJI       44.90   1.000   S
 SWJI       51.80   1.000   S
 GMJI       79.00   1.000   S
# 2013 02 05 10 32 21.8  -09.17    110.54     16.0  3.4   0.0   0.0   1.407       217
 PCJI       19.50   1.000   P
 WOJI       24.20   1.000   P
 PWJI       28.20   1.000   P
 SWJI       31.10   1.000   P
 NGJI       35.80   1.000   P
 WOJI       40.70   1.000   S
 PWJI       47.20   1.000   S
 SWJI       53.60   1.000   S
# 2013 02 05 12 01 50.7  -09.14    110.56     10.0  3.7   0.0   0.0   0.892       218
 PCJI       19.70   1.000   P
 WOJI       24.10   1.000   P
 PWJI       28.10   1.000   P
 SWJI       31.30   1.000   P
 GRJI       46.00   1.000   P
 GMJI       46.60   1.000   P
 PWJI       47.60   1.000   S
# 2013 02 06 16 26 48.6  -07.95    110.12    111.0  3.7   0.0   0.0   0.330       219
 WOJI       19.80   1.000   P
 PCJI       22.80   1.000   P
 NGJI       27.10   1.000   P
 SWJI       28.80   1.000   P
 PWJI       28.90   1.000   P
 GRJI       39.80   1.000   P
 NGJI       46.90   1.000   S
 GMJI       49.60   1.000   P
# 2013 02 07 15 37 58.1  -09.53    112.95     18.0  3.9   0.0   0.0   0.893       220
 GMJI       22.10   1.000   P
 PWJI       29.80   1.000   P
 SWJI       34.20   1.000   P
 PCJI       34.40   1.000   P
 GRJI       43.50   1.000   P
 PWJI       52.30   1.000   S
 SWJI       61.70   1.000   S
 NGJI       73.40   1.000   P
 GRJI       73.80   1.000   S
# 2013 02 08 01 07 53.8  -09.28    110.08     23.0  4.4   0.0   0.0   0.526       221
 PCJI       25.10   1.000   P
 PWJI       33.50   1.000   P
 SWJI       36.10   1.000   P
 GRJI       50.90   1.000   P
 GMJI       52.60   1.000   P
# 2013 02 11 16 56 44.6  -08.61    111.44     22.0  2.9   0.0   0.0   0.050       222
 PCJI       11.00   1.000   P
 PWJI       11.70   1.000   P
 WOJI       17.40   1.000   P
 SWJI       17.50   1.000   P
 PCJI       19.00   1.000   S
 NGJI       21.90   1.000   P
# 2013 02 12 21 32 50.1  -07.44    111.74     12.0  3.0   0.0   0.0   1.340       223
 NGJI        7.70   1.000   P
 SWJI        9.20   1.000   P
 PWJI       14.00   1.000   P
 GRJI       17.70   1.000   P
 PCJI       18.60   1.000   P
 TBJI       20.50   1.000   P
 PWJI       24.10   1.000   S
# 2013 02 13 16 04 19.3  -09.75    110.66    265.0  3.7   0.0   0.0   0.148       224
 PCJI       40.70   1.000   P
 PWJI       42.90   1.000   P
 SWJI       46.30   1.000   P
 NGJI       48.50   1.000   P
 GMJI       54.50   1.000   P
 TBJI       55.20   1.000   P
 GRJI       57.10   1.000   P
 PCJI       73.20   1.000   S
 PWJI       77.40   1.000   S
 WOJI       77.80   1.000   P
 SWJI       83.60   1.000   S
 NGJI       87.00   1.000   S
# 2013 02 14 19 10 33.3  -10.56    112.55     10.0  3.9   0.0   0.0   0.227       225
 GMJI       39.90   1.000   P
 PCJI       43.10   1.000   P
 SWJI       46.30   1.000   P
 GRJI       56.30   1.000   P
# 2013 02 22 00 13 03.4  -07.97    111.38    124.0  3.9   0.0   0.0   0.371       226
 PCJI       18.80   1.000   P
 PWJI       18.90   1.000   P
 SWJI       19.10   1.000   P
 WOJI       19.20   1.000   P
 NGJI       20.10   1.000   P
 TBJI       24.80   1.000   P
 GRJI       28.20   1.000   P
 PCJI       32.80   1.000   S
 WOJI       33.80   1.000   S
# 2013 02 23 06 46 38.5  -08.47    110.72     19.0  2.8   0.0   0.0   0.046       227
 PCJI       11.00   1.000   P
 WOJI       13.10   1.000   P
 PWJI       19.80   1.000   P
 SWJI       22.00   1.000   P
# 2013 02 23 09 17 34.3  -09.23    110.39     10.0  4.3   0.0   0.0   1.172       228
 PCJI       21.10   1.000   P
 PWJI       29.20   1.000   P
 NGJI       37.70   1.000   P
# 2013 02 23 16 24 55.7  -08.67    111.19     58.0  2.7   0.0   0.0   0.268       229
 PCJI       13.20   1.000   P
 PWJI       16.10   1.000   P
 SWJI       18.80   1.000   P
 PCJI       23.00   1.000   S
 PWJI       27.60   1.000   S
 SWJI       34.30   1.000   S
# 2013 02 23 23 07 16.7  -09.29    110.39     11.0  4.2   0.0   0.0   0.679       230
 PCJI       22.80   1.000   P
 WOJI       27.00   1.000   P
 PWJI       31.20   1.000   P
 SWJI       34.30   1.000   P
 WOJI       47.20   1.000   S
 PWJI       53.10   1.000   S
 NGJI       64.30   1.000   P
# 2013 03 05 09 05 30.2  -08.96    110.42     10.0  3.6   0.0   0.0   0.846       231
 WOJI       21.90   1.000   P
 NGJI       33.90   1.000   P
# 2013 03 05 12 37 32.4  -10.76    111.22     23.0  4.4   0.0   0.0   1.078       232
 WOJI       43.20   1.000   P
 GMJI       50.60   1.000   P
 NGJI       51.60   1.000   P
 GMJI       90.10   1.000   S
# 2013 03 10 04 23 31.3  -06.94    112.05     10.0  2.4   0.0   0.0   0.370       233
 TBJI        5.30   1.000   P
 GRJI        8.80   1.000   P
 TBJI       10.10   1.000   S
 NGJI       14.30   1.000   P
 GRJI       16.20   1.000   S
 PWJI       23.30   1.000   P
 PCJI       27.50   1.000   P
 PWJI       40.80   1.000   S
# 2013 03 11 12 48 01.2  -08.74    111.53     22.0  3.0   0.0   0.0   0.889       234
 PCJI       12.20   1.000   P
 PWJI       14.50   1.000   P
 SWJI       19.00   1.000   P
 WOJI       19.60   1.000   P
 PCJI       22.00   1.000   S
 SWJI       33.40   1.000   S
 WOJI       34.30   1.000   S
# 2013 03 12 06 32 22.8  -08.39    110.75     13.0  3.3   0.0   0.0   0.361       235
 PCJI       10.20   1.000   P
 WOJI       11.70   1.000   P
 PCJI       17.30   1.000   S
 PWJI       19.90   1.000   P
 WOJI       20.20   1.000   S
 SWJI       21.40   1.000   P
 PWJI       34.60   1.000   S
 SWJI       38.20   1.000   S
# 2013 03 13 03 11 00.9  -08.18    110.77     73.0  2.5   0.0   0.0   0.127       236
 WOJI       13.30   1.000   P
 PCJI       13.80   1.000   P
 PWJI       19.00   1.000   P
 WOJI       24.00   1.000   S
 PCJI       24.20   1.000   S
 PWJI       33.80   1.000   S
# 2013 03 13 11 37 28.1  -08.40    112.78     10.0  2.9   0.0   0.0   0.350       237
 PWJI       18.60   1.000   P
 GRJI       27.00   1.000   P
 PCJI       28.40   1.000   P
# 2013 03 15 01 23 14.7  -08.13    111.57     10.0  2.7   0.0   0.0   0.473       238
 PWJI        6.20   1.000   P
 PCJI        9.20   1.000   P
 PWJI       10.10   1.000   S
 SWJI       10.10   1.000   P
 PCJI       14.20   1.000   S
 SWJI       15.70   1.000   S
# 2013 03 16 01 59 41.6  -09.26    111.49     14.0  3.5   0.0   0.0   0.485       239
 PCJI       20.40   1.000   P
 PWJI       20.80   1.000   P
 SWJI       25.50   1.000   P
 WOJI       26.70   1.000   P
 NGJI       32.20   1.000   P
 GRJI       41.00   1.000   P
# 2013 03 17 12 54 18.7  -08.15    111.57     10.0  3.1   0.0   0.0   0.522       240
 PWJI        6.20   1.000   P
 PCJI        8.90   1.000   P
 PWJI        9.50   1.000   S
 SWJI        9.80   1.000   P
 WOJI       14.00   1.000   P
 PCJI       14.30   1.000   S
 NGJI       15.20   1.000   P
 SWJI       16.10   1.000   S
 WOJI       23.60   1.000   S
 GRJI       27.50   1.000   P
 GRJI       48.10   1.000   S
# 2013 03 18 12 52 18.3  -09.14    111.82     18.0  3.0   0.0   0.0   0.363       241
 PWJI       18.20   1.000   P
 PCJI       20.90   1.000   P
 SWJI       24.30   1.000   P
 WOJI       26.80   1.000   P
 NGJI       30.10   1.000   P
 PCJI       35.70   1.000   S
 SWJI       42.80   1.000   S
 WOJI       48.00   1.000   S
# 2013 03 27 04 35 29.8  -11.37    112.16     10.0  4.1   0.0   0.0   0.540       242
 PWJI       50.20   1.000   P
 GMJI       51.00   1.000   P
 SWJI       54.90   1.000   P
# 2013 03 28 15 21 26.9  -10.35    111.67     39.0  4.1   0.0   0.0   0.189       243
 PWJI       32.90   1.000   P
 PCJI       33.50   1.000   P
 WOJI       39.70   1.000   P
 SWJI       39.80   1.000   P
 GMJI       41.10   1.000   P
 NGJI       44.70   1.000   P
 GRJI       52.00   1.000   P
 PCJI       60.80   1.000   S
 SWJI       70.30   1.000   S
# 2013 03 29 02 30 47.1  -09.09    110.65     10.0  3.5   0.0   0.0   0.853       244
 PCJI       18.90   1.000   P
 WOJI       22.80   1.000   P
 PWJI       27.00   1.000   P
 SWJI       30.50   1.000   P
# 2013 03 30 11 38 50.2  -06.52    112.23     21.0  3.3   0.0   0.0   0.406       245
 GRJI       10.70   1.000   P
 TBJI       11.20   1.000   P
 GRJI       17.60   1.000   S
 TBJI       18.10   1.000   S
 NGJI       20.20   1.000   P
 SWJI       21.80   1.000   P
 PCJI       31.60   1.000   P
 NGJI       35.80   1.000   S
 SWJI       39.80   1.000   S
# 2013 03 31 11 04 46.8  -09.21    112.85     21.0  4.2   0.0   0.0   0.788       246
 GMJI       19.30   1.000   P
 PWJI       25.90   1.000   P
 SWJI       30.10   1.000   P
 PCJI       30.70   1.000   P
 GMJI       34.20   1.000   S
 WOJI       36.90   1.000   P
 GRJI       37.50   1.000   P
 TBJI       40.90   1.000   P
 PWJI       43.70   1.000   S
 PCJI       54.40   1.000   S
 WOJI       66.00   1.000   S
# 2013 04 02 22 17 57.1  -07.47    112.67     10.0  4.0   0.0   0.0   1.989       247
 SWJI       20.30   1.000   P
 PWJI       20.40   1.000   P
# 2013 04 06 08 43 14.7  -09.03    110.06     14.0  3.6   0.0   0.0   0.862       248
 PCJI       23.70   1.000   P
 WOJI       25.40   1.000   P
 PWJI       32.60   1.000   P
 SWJI       34.80   1.000   P
 PCJI       41.80   1.000   S
 WOJI       45.30   1.000   S
 GMJI       53.50   1.000   P
 PWJI       57.50   1.000   S
# 2013 04 10 05 12 06.1  -09.18    112.57     76.0  4.0   0.0   0.0   0.745       249
 GMJI       21.70   1.000   P
 PWJI       22.90   1.000   P
 SWJI       26.60   1.000   P
 PCJI       27.20   1.000   P
 WOJI       32.60   1.000   P
 GRJI       35.50   1.000   P
 GMJI       38.30   1.000   S
 PWJI       39.50   1.000   S
 SWJI       47.30   1.000   S
 WOJI       57.70   1.000   S
# 2013 04 15 08 49 16.7  -09.64    110.53     25.0  3.6   0.0   0.0   0.235       250
 WOJI       30.30   1.000   P
 PWJI       30.70   1.000   P
 SWJI       35.70   1.000   P
 NGJI       38.40   1.000   P
# 2013 04 16 03 48 21.6  -08.99    111.17     10.0  2.9   0.0   0.0   0.678       251
 PCJI       15.00   1.000   P
 PWJI       19.80   1.000   P
 WOJI       20.90   1.000   P
 SWJI       23.80   1.000   P
 PCJI       26.40   1.000   S
 NGJI       29.20   1.000   P
 PWJI       33.40   1.000   S
 WOJI       37.50   1.000   S
 SWJI       42.90   1.000   S
# 2013 04 22 10 48 45.5  -08.41    112.42     96.0  4.1   0.0   0.0   0.262       252
 PWJI       17.10   1.000   P
 SWJI       19.40   1.000   P
 GRJI       25.50   1.000   P
 WOJI       27.20   1.000   P
 TBJI       27.90   1.000   P
 SWJI       34.40   1.000   S
 WOJI       47.90   1.000   S
# 2013 04 22 16 23 53.7  -08.98    111.35     67.0  4.0   0.0   0.0   0.937       253
 PWJI       18.30   1.000   P
 WOJI       20.60   1.000   P
 SWJI       22.00   1.000   P
 PWJI       31.90   1.000   S
 TBJI       35.60   1.000   P
 WOJI       36.40   1.000   S
 GRJI       36.70   1.000   P
 SWJI       38.80   1.000   S
 GRJI       65.10   1.000   S
# 2013 04 23 22 58 17.7  -08.82    111.55     57.0  3.3   0.0   0.0   0.518       254
 PWJI       14.90   1.000   P
 WOJI       19.20   1.000   P
 SWJI       19.90   1.000   P
 PWJI       25.60   1.000   S
# 2013 04 24 02 39 14.2  -08.81    111.32     86.0  3.4   0.0   0.0   0.268       255
 PWJI       18.00   1.000   P
 WOJI       19.70   1.000   P
 SWJI       21.80   1.000   P
 PWJI       31.40   1.000   S
 WOJI       35.10   1.000   S
 SWJI       38.20   1.000   S
# 2013 04 24 17 09 22.9  -08.44    111.30     30.0  3.1   0.0   0.0   0.450       256
 PWJI       11.70   1.000   P
 WOJI       13.40   1.000   P
 SWJI       15.50   1.000   P
 PWJI       21.70   1.000   S
 WOJI       24.70   1.000   S
 SWJI       27.80   1.000   S
# 2013 04 24 23 26 38.6  -09.44    112.94     10.0  4.5   0.0   0.0   0.591       257
 PWJI       30.00   1.000   P
 SWJI       33.80   1.000   P
 WOJI       41.10   1.000   P
 GRJI       42.30   1.000   P
# 2013 05 03 21 59 06.4  -09.31    112.96     31.0  3.2   0.0   0.0   0.194       258
 GMJI       19.70   1.000   P
 PWJI       25.60   1.000   P
 SWJI       31.20   1.000   P
 PCJI       32.60   1.000   P
 GMJI       34.80   1.000   S
 NGJI       37.30   1.000   P
 GRJI       38.00   1.000   P
 WOJI       38.50   1.000   P
 WOJI       68.40   1.000   S
# 2013 05 04 01 13 32.2  -08.00    110.48     10.0  2.7   0.0   0.0   0.368       259
 WOJI        9.80   1.000   P
 PCJI       13.90   1.000   P
 WOJI       17.10   1.000   S
 PWJI       24.40   1.000   P
# 2013 05 04 08 04 46.3  -06.15    112.75    594.0  4.7   0.0   0.0   1.364       260
 GRJI       71.30   1.000   P
 TBJI       71.70   1.000   P
 SWJI       73.70   1.000   P
 PWJI       74.10   1.000   P
 WOJI       75.90   1.000   P
 PCJI       76.20   1.000   P
# 2013 05 05 13 46 06.2  -08.58    112.95    136.0  3.9   0.0   0.0   0.612       261
 GMJI       20.80   1.000   P
 PWJI       26.00   1.000   P
 SWJI       28.10   1.000   P
 GRJI       30.20   1.000   P
 PCJI       32.50   1.000   P
 NGJI       33.90   1.000   P
 GMJI       35.90   1.000   S
 WOJI       36.40   1.000   P
 PWJI       45.20   1.000   S
 SWJI       49.50   1.000   S
 PCJI       56.40   1.000   S
# 2013 05 07 09 48 37.1  -08.39    111.29    121.0  4.4   0.0   0.0   0.421       262
 PCJI       18.60   1.000   P
 WOJI       19.90   1.000   P
 SWJI       20.70   1.000   P
 NGJI       22.80   1.000   P
 WOJI       35.30   1.000   S
 GMJI       35.70   1.000   P
 GMJI       62.90   1.000   S
# 2013 05 14 19 09 28.9  -10.41    112.29     86.0  4.3   0.0   0.0   0.920       263
 PWJI       36.10   1.000   P
 PCJI       36.60   1.000   P
 SWJI       40.70   1.000   P
 PWJI       62.80   1.000   S
 SWJI       75.00   1.000   S
# 2013 05 14 22 23 54.6  -09.24    111.20     23.0  3.8   0.0   0.0   0.664       264
 PCJI       17.90   1.000   P
 PWJI       22.10   1.000   P
 SWJI       26.30   1.000   P
 PWJI       37.20   1.000   S
