# 2014 04 18 15 15 14.8  -09.16    110.41     10.0  3.8   0.0   0.0   0.665       405
 PCJI       21.70   1.000   P
 WOJI       24.90   1.000   P
 PWJI       30.30   1.000   P
 SWJI       33.30   1.000   P
 UWJI       45.10   1.000   P
 GRJI       48.60   1.000   P
# 2014 04 18 15 20 08.3  -08.84    110.47     10.0  3.4   0.0   0.0   0.791       406
 PCJI       17.50   1.000   P
 WOJI       20.70   1.000   P
 PWJI       26.60   1.000   P
 SWJI       28.80   1.000   P
 PCJI       31.10   1.000   S
 UWJI       41.10   1.000   P
 GRJI       45.20   1.000   P
# 2014 04 18 15 25 45.6  -09.15    110.36     10.0  3.5   0.0   0.0   0.717       407
 PCJI       21.80   1.000   P
 WOJI       25.10   1.000   P
 PWJI       31.30   1.000   P
 SWJI       33.60   1.000   P
 WOJI       44.00   1.000   S
# 2014 04 18 15 36 25.4  -09.27    110.38     10.0  4.2   0.0   0.0   0.894       408
 PCJI       22.60   1.000   P
 WOJI       25.80   1.000   P
 PWJI       31.40   1.000   P
 SWJI       34.20   1.000   P
 PCJI       42.70   1.000   S
 UWJI       46.90   1.000   P
 GRJI       49.50   1.000   P
# 2014 04 18 15 55 33.7  -09.10    110.30     10.0  3.4   0.0   0.0   0.740       409
 PCJI       23.40   1.000   P
 WOJI       24.70   1.000   P
 PWJI       31.50   1.000   P
 SWJI       32.80   1.000   P
 WOJI       43.70   1.000   S
 UWJI       44.40   1.000   P
 GRJI       49.30   1.000   P
# 2014 04 18 16 04 19.7  -09.12    110.43     16.0  3.1   0.0   0.0   0.837       410
 PCJI       21.40   1.000   P
 WOJI       24.60   1.000   P
 PWJI       30.30   1.000   P
 SWJI       32.80   1.000   P
 PCJI       35.60   1.000   S
 WOJI       42.40   1.000   S
 SWJI       56.60   1.000   S
# 2014 04 18 16 05 33.2  -09.03    110.47     13.0  3.5   0.0   0.0   0.962       411
 PCJI       19.00   1.000   P
 WOJI       23.60   1.000   P
 SWJI       31.30   1.000   P
 PCJI       34.20   1.000   S
 WOJI       40.20   1.000   S
# 2014 04 18 16 31 32.1  -09.18    110.48     12.0  3.3   0.0   0.0   0.837       412
 PCJI       22.20   1.000   P
 WOJI       25.90   1.000   P
 SWJI       34.10   1.000   P
 PCJI       37.50   1.000   S
# 2014 04 19 05 17 47.4  -09.13    110.41     10.0  4.1   0.0   0.0   0.996       413
 PCJI       20.80   1.000   P
 WOJI       24.40   1.000   P
 SWJI       32.70   1.000   P
 GRJI       49.60   1.000   P
 GRJI       84.00   1.000   S
# 2014 04 19 07 50 50.3  -08.84    110.52     10.0  3.5   0.0   0.0   0.255       414
 PCJI       16.90   1.000   P
 WOJI       20.50   1.000   P
 PWJI       26.40   1.000   P
 SNJI       28.30   1.000   P
 PCJI       30.50   1.000   S
 WOJI       35.20   1.000   S
 SNJI       49.80   1.000   S
# 2014 04 19 08 59 01.8  -09.23    110.37     10.0  3.5   0.0   0.0   0.999       415
 PCJI       22.80   1.000   P
 WOJI       26.80   1.000   P
 PWJI       32.20   1.000   P
 SNJI       33.60   1.000   P
# 2014 04 19 10 40 08.3  -09.28    110.43     10.0  3.1   0.0   0.0   0.646       416
 PCJI       22.80   1.000   P
 WOJI       26.60   1.000   P
 PWJI       32.00   1.000   P
 SNJI       33.80   1.000   P
 PWJI       55.90   1.000   S
# 2014 04 25 05 13 55.4  -08.86    110.32     12.0  4.0   0.0   0.0   0.812       417
 PCJI       20.30   1.000   P
 WOJI       22.10   1.000   P
 PWJI       29.50   1.000   P
 SNJI       31.30   1.000   P
 SWJI       32.00   1.000   P
 PCJI       34.30   1.000   S
 WOJI       37.40   1.000   S
 UWJI       41.20   1.000   P
 GRJI       45.80   1.000   P
 PWJI       50.10   1.000   S
 GRJI       81.50   1.000   S
# 2014 04 25 09 19 56.9  -07.53    111.17     17.0  2.8   0.0   0.0   0.631       418
 WOJI        8.20   1.000   P
 PCJI       12.90   1.000   P
 SWJI       13.10   1.000   P
 PWJI       16.00   1.000   P
 UWJI       20.30   1.000   P
 PCJI       22.80   1.000   S
 SWJI       23.40   1.000   S
 GRJI       25.10   1.000   P
 PWJI       26.40   1.000   S
 UWJI       35.70   1.000   S
# 2014 04 25 10 16 35.7  -08.91    111.88     13.0  4.2   0.0   0.0   0.748       419
 PWJI       17.40   1.000   P
 PCJI       18.80   1.000   P
 SWJI       21.90   1.000   P
 WOJI       25.90   1.000   P
 PWJI       29.20   1.000   S
 PCJI       32.00   1.000   S
 GRJI       35.60   1.000   P
 SWJI       37.40   1.000   S
 UWJI       43.40   1.000   P
 WOJI       43.60   1.000   S
 GRJI       60.90   1.000   S
# 2014 04 28 05 20 44.7  -09.13    110.35     30.0  5.0   0.0   0.0   1.475       420
 PCJI       19.10   1.000   P
 WOJI       22.50   1.000   P
 PWJI       27.40   1.000   P
 WOJI       41.80   1.000   S
 UWJI       43.40   1.000   P
 GRJI       46.90   1.000   P
 PWJI       51.60   1.000   S
# 2014 04 28 05 28 20.7  -09.20    110.47     10.0  3.9   0.0   0.0   0.930       421
 PCJI       22.00   1.000   P
 WOJI       25.50   1.000   P
 PWJI       30.60   1.000   P
 SWJI       33.70   1.000   P
 PWJI       52.50   1.000   S
 SWJI       57.70   1.000   S
# 2014 04 28 05 32 43.5  -09.01    110.58     24.0  2.8   0.0   0.0   0.776       422
 PCJI       16.90   1.000   P
 WOJI       21.70   1.000   P
 PWJI       27.40   1.000   P
 PCJI       32.50   1.000   S
 WOJI       37.60   1.000   S
 PWJI       45.30   1.000   S
# 2014 04 28 05 38 49.2  -09.12    110.43     24.0  4.7   0.0   0.0   1.508       423
 PCJI       20.20   1.000   P
 WOJI       23.60   1.000   P
 PWJI       28.70   1.000   P
 PCJI       34.00   1.000   S
 WOJI       39.30   1.000   S
 GRJI       48.00   1.000   P
 PWJI       50.40   1.000   S
 GRJI       83.20   1.000   S
# 2014 04 28 05 53 27.4  -09.05    110.44     27.0  3.4   0.0   0.0   0.840       424
 PCJI       19.30   1.000   P
 WOJI       22.50   1.000   P
 PWJI       27.80   1.000   P
 SNJI       30.30   1.000   P
 PCJI       33.20   1.000   S
 WOJI       40.00   1.000   S
 PWJI       49.30   1.000   S
# 2014 04 28 06 00 29.9  -08.93    110.52     10.0  3.2   0.0   0.0   0.512       425
 PCJI       18.20   1.000   P
 WOJI       21.20   1.000   P
 PWJI       27.20   1.000   P
 SNJI       29.20   1.000   P
 PCJI       31.40   1.000   S
 WOJI       38.00   1.000   S
 PWJI       49.00   1.000   S
# 2014 04 28 06 55 05.7  -09.09    110.41     20.0  3.9   0.0   0.0   1.438       426
 PCJI       20.00   1.000   P
 WOJI       24.90   1.000   P
 PWJI       29.40   1.000   P
 SNJI       31.30   1.000   P
 SWJI       32.20   1.000   P
 PCJI       34.60   1.000   S
 WOJI       38.80   1.000   S
 PWJI       51.20   1.000   S
 SWJI       54.90   1.000   S
# 2014 04 28 07 27 39.4  -09.07    110.40     15.0  4.6   0.0   0.0   1.219       427
 PCJI       20.40   1.000   P
 WOJI       23.70   1.000   P
 PWJI       28.60   1.000   P
 SNJI       30.90   1.000   P
 SWJI       31.80   1.000   P
 WOJI       43.80   1.000   S
 GRJI       47.40   1.000   P
 PWJI       51.40   1.000   S
 SWJI       55.60   1.000   S
# 2014 04 28 07 52 32.6  -09.04    110.35     17.0  4.6   0.0   0.0   1.433       428
 PCJI       20.10   1.000   P
 WOJI       23.40   1.000   P
 PWJI       28.70   1.000   P
 SNJI       30.70   1.000   P
 SWJI       31.80   1.000   P
 PCJI       34.80   1.000   S
 GRJI       47.70   1.000   P
 PWJI       50.20   1.000   S
 SWJI       55.80   1.000   S
# 2014 04 29 17 23 01.4  -09.03    112.02     19.0  4.0   0.0   0.0   0.710       429
 PWJI       18.40   1.000   P
 PCJI       20.60   1.000   P
 WOJI       26.60   1.000   P
 PWJI       32.00   1.000   S
 GRJI       35.50   1.000   P
 PCJI       36.10   1.000   S
 UWJI       44.00   1.000   P
 WOJI       47.00   1.000   S
 GRJI       61.80   1.000   S
# 2014 04 30 03 32 11.9  -08.75    110.60     11.0  3.2   0.0   0.0   0.553       430
 PCJI       14.70   1.000   P
 WOJI       19.60   1.000   P
 PCJI       26.40   1.000   S
 SNJI       26.90   1.000   P
 SWJI       27.60   1.000   P
# 2014 04 30 22 36 28.9  -09.16    110.46     10.0  3.5   0.0   0.0   0.481       431
 PCJI       21.30   1.000   P
 WOJI       24.80   1.000   P
 PCJI       38.30   1.000   S
# 2014 05 03 03 07 52.7  -09.12    112.05     10.0  4.2   0.0   0.0   0.291       432
 PCJI       22.70   1.000   P
 SNJI       24.50   1.000   P
 WOJI       29.30   1.000   P
 GRJI       37.10   1.000   P
 UWJI       46.60   1.000   P
# 2014 05 06 12 13 05.6  -07.98    110.50     10.0  3.1   0.0   0.0   0.913       433
 WOJI        9.40   1.000   P
 PCJI       14.60   1.000   P
 WOJI       15.20   1.000   S
 PWJI       23.50   1.000   P
 PCJI       24.30   1.000   S
 PWJI       40.30   1.000   S
# 2014 05 08 17 43 00.2  -08.36    110.89     10.0  2.6   0.0   0.0   0.412       434
 PCJI        7.20   1.000   P
 WOJI       11.50   1.000   P
 PCJI       12.40   1.000   S
 WOJI       18.90   1.000   S
 PWJI       19.00   1.000   P
 UWJI       32.90   1.000   P
# 2014 05 09 22 48 46.8  -10.84    110.83     10.0  4.4   0.0   0.0   0.216       435
 PCJI       42.90   1.000   P
 WOJI       47.50   1.000   P
 GRJI       64.50   1.000   P
# 2014 05 12 04 12 23.5  -09.31    112.19     31.0  3.6   0.0   0.0   0.550       436
 PWJI       22.70   1.000   P
 PCJI       24.40   1.000   P
 WOJI       30.90   1.000   P
 GRJI       35.90   1.000   P
 PWJI       39.60   1.000   S
# 2014 05 13 17 26 51.1  -08.79    112.86     83.0  3.5   0.0   0.0   0.517       437
 PWJI       23.20   1.000   P
 WOJI       34.10   1.000   P
 PWJI       40.70   1.000   S
 WOJI       60.30   1.000   S
# 2014 05 21 01 00 05.9  -08.89    110.82     86.0  4.0   0.0   0.0   0.360       438
 WOJI       19.80   1.000   P
 SNJI       25.00   1.000   P
 GRJI       40.00   1.000   P
 GRJI       70.10   1.000   S
# 2014 05 24 05 01 09.9  -09.07    112.93     12.0  3.7   0.0   0.0   0.203       439
 GRJI       36.20   1.000   P
 WOJI       38.50   1.000   P
 GRJI       64.20   1.000   S
# 2014 05 24 16 42 30.9  -08.71    111.05     26.0  4.0   0.0   0.0   0.608       440
 WOJI       16.30   1.000   P
 WOJI       28.00   1.000   S
 GRJI       35.80   1.000   P
# 2014 05 27 03 37 02.7  -09.06    110.27     10.0  4.4   0.0   0.0   0.991       441
 WOJI       24.60   1.000   P
 SNJI       32.60   1.000   P
 WOJI       42.60   1.000   S
 GRJI       49.80   1.000   P
# 2014 05 28 04 08 23.3  -08.90    111.33     12.0  3.5   0.0   0.0   0.280       442
 WOJI       20.90   1.000   P
 SNJI       22.40   1.000   P
 WOJI       36.50   1.000   S
# 2014 05 28 13 49 05.4  -09.08    112.87     46.0  4.6   0.0   0.0   0.665       443
 GRJI       34.90   1.000   P
 WOJI       35.50   1.000   P
 UWJI       49.10   1.000   P
 GRJI       60.80   1.000   S
 WOJI       62.40   1.000   S
 UWJI       86.10   1.000   S
# 2014 05 30 12 50 45.2  -07.03    112.77     10.0  3.5   0.0   0.0   0.480       444
 GRJI        7.30   1.000   P
 GRJI       11.40   1.000   S
 WOJI       33.60   1.000   P
 WOJI       60.40   1.000   S
# 2014 05 30 15 44 04.1  -08.02    110.15     10.0  2.9   0.0   0.0   0.671       445
 WOJI       16.30   1.000   P
 WOJI       26.40   1.000   S
 GRJI       41.50   1.000   P
# 2014 06 02 01 53 45.3  -08.71    112.68     78.0  3.3   0.0   0.0   0.581       446
 SNJI       22.70   1.000   P
 SWJI       23.20   1.000   P
 SNJI       40.40   1.000   S
 SWJI       41.40   1.000   S
# 2014 06 04 09 01 44.8  -10.74    110.03     67.0  4.9   0.0   0.0   1.210       447
 WOJI       46.70   1.000   P
 SWJI       52.30   1.000   P
 GRJI       66.20   1.000   P
 WOJI       80.50   1.000   S
 SWJI       90.30   1.000   S
# 2014 06 06 22 18 41.1  -09.53    112.79     62.0  4.6   0.0   0.0   0.800       448
 SWJI       31.30   1.000   P
 WOJI       37.80   1.000   P
 GRJI       41.30   1.000   P
# 2014 06 26 19 49 24.2  -08.71    110.89     17.0  4.1   0.0   0.0   0.756       449
 WOJI       16.40   1.000   P
 SWJI       22.80   1.000   P
 NGJI       27.40   1.000   P
 WOJI       27.80   1.000   S
 GRJI       37.90   1.000   P
 SWJI       40.40   1.000   S
# 2014 06 27 01 22 23.7  -09.47    112.21     10.0  4.1   0.0   0.0   0.392       450
 SWJI       30.30   1.000   P
 WOJI       34.50   1.000   P
 NGJI       36.80   1.000   P
 GRJI       41.60   1.000   P
 SWJI       54.70   1.000   S
 WOJI       61.50   1.000   S
# 2014 06 27 10 45 31.7  -08.74    111.04     10.0  3.7   0.0   0.0   0.620       451
 WOJI       17.10   1.000   P
 SWJI       21.20   1.000   P
 NGJI       26.30   1.000   P
 WOJI       30.10   1.000   S
 GRJI       37.70   1.000   P
 NGJI       45.60   1.000   S
# 2014 06 27 14 06 27.9  -07.84    110.93     10.0  2.8   0.0   0.0   0.183       452
 WOJI        1.60   1.000   P
 NGJI       13.90   1.000   P
 SWJI       16.10   1.000   P
 GRJI       31.10   1.000   P
# 2014 07 09 06 03 06.1  -09.76    111.54     29.0  4.8   0.0   0.0   1.210       453
 SNJI       30.20   1.000   P
 WOJI       30.50   1.000   P
 SWJI       30.90   1.000   P
 NGJI       38.40   1.000   P
 GRJI       46.30   1.000   P
 SWJI       55.10   1.000   S
 WOJI       55.60   1.000   S
# 2014 07 09 13 34 47.9  -09.85    111.46     26.0  4.1   0.0   0.0   0.829       454
 SWJI       32.30   1.000   P
 WOJI       32.50   1.000   P
 NGJI       39.10   1.000   P
 GRJI       46.40   1.000   P
 WOJI       58.20   1.000   S
# 2014 07 10 16 49 15.4  -09.78    111.54     11.0  3.9   0.0   0.0   0.775       455
 SWJI       32.40   1.000   P
 WOJI       33.70   1.000   P
 NGJI       40.30   1.000   P
 GRJI       48.00   1.000   P
 WOJI       60.30   1.000   S
# 2014 07 14 01 26 18.5  -09.09    110.28     10.0  4.4   0.0   0.0   0.712       456
 WOJI       24.20   1.000   P
 SWJI       33.10   1.000   P
 NGJI       36.10   1.000   P
# 2014 07 14 05 05 05.4  -08.84    111.22     64.0  5.4   0.0   0.0   1.080       457
 WOJI       18.30   1.000   P
 SWJI       20.70   1.000   P
 WOJI       31.40   1.000   S
 GRJI       35.70   1.000   P
 SWJI       36.60   1.000   S
# 2014 07 18 03 30 56.1  -09.60    110.08     10.0  3.9   0.0   0.0   1.766       458
 SNJI       39.60   1.000   P
 NGJI       45.10   1.000   P
# 2014 07 23 22 48 50.1  -08.51    111.42    106.0  4.0   0.0   0.0   0.517       459
 SWJI       19.80   1.000   P
 WOJI       19.80   1.000   P
 NGJI       23.40   1.000   P
 GRJI       31.00   1.000   P
 GMJI       33.50   1.000   P
 WOJI       34.40   1.000   S
 SWJI       35.00   1.000   S
 NGJI       39.70   1.000   S
 GRJI       55.70   1.000   S
# 2014 07 24 08 16 53.3  -09.37    112.99     32.0  4.9   0.0   0.0   1.274       460
 GMJI       17.90   1.000   P
 SWJI       30.90   1.000   P
 GRJI       38.50   1.000   P
 WOJI       38.80   1.000   P
 NGJI       40.40   1.000   P
 UWJI       52.80   1.000   P
 SWJI       57.50   1.000   S
 WOJI       67.90   1.000   S
 GRJI       68.80   1.000   S
 UWJI       94.00   1.000   S
# 2014 07 24 08 41 08.2  -09.25    111.48     30.0  5.0   0.0   0.0   1.134       461
 WOJI       23.60   1.000   P
 SWJI       23.80   1.000   P
 NGJI       30.50   1.000   P
 GMJI       32.70   1.000   P
 GRJI       38.90   1.000   P
 WOJI       41.60   1.000   S
 SWJI       43.00   1.000   S
 UWJI       44.20   1.000   P
# 2014 07 26 05 57 54.6  -07.19    111.44    244.0  3.5   0.0   0.0   0.639       462
 NGJI       32.20   1.000   P
 SWJI       32.30   1.000   P
 WOJI       32.70   1.000   P
 UWJI       33.40   1.000   P
 GRJI       34.50   1.000   P
 GMJI       43.50   1.000   P
 NGJI       57.00   1.000   S
 UWJI       59.80   1.000   S
 WOJI       60.40   1.000   S
 GRJI       61.70   1.000   S
# 2014 07 26 09 14 17.9  -08.85    112.49     31.0  3.3   0.0   0.0   0.218       463
 GMJI       19.30   1.000   P
 SWJI       22.60   1.000   P
 NGJI       29.00   1.000   P
 GRJI       30.70   1.000   P
 GMJI       33.60   1.000   S
 SWJI       39.60   1.000   S
 GRJI       53.80   1.000   S
# 2014 07 27 12 21 55.2  -06.98    111.25     10.0  3.3   0.0   0.0   0.440       464
 NGJI        9.40   1.000   P
 NGJI       16.00   1.000   S
 WOJI       17.10   1.000   P
 SWJI       17.40   1.000   P
 GRJI       22.30   1.000   P
 SWJI       30.00   1.000   S
 WOJI       30.50   1.000   S
 GRJI       39.70   1.000   S
# 2014 08 03 13 38 08.5  -08.93    110.39     21.0  3.8   0.0   0.0   0.841       465
 WOJI       21.20   1.000   P
 WOJI       36.00   1.000   S
# 2014 08 04 04 43 10.9  -09.07    111.33     15.0  3.7   0.0   0.0   0.606       466
 WOJI       22.90   1.000   P
 SNJI       24.00   1.000   P
 SWJI       24.80   1.000   P
 NGJI       29.30   1.000   P
 GMJI       35.90   1.000   P
 GRJI       40.00   1.000   P
 WOJI       40.30   1.000   S
 SNJI       42.20   1.000   S
 SWJI       43.40   1.000   S
 NGJI       51.70   1.000   S
 GMJI       64.30   1.000   S
# 2014 08 05 05 46 36.4  -08.61    110.29     38.0  3.2   0.0   0.0   0.184       467
 WOJI       17.10   1.000   P
 SNJI       26.20   1.000   P
 SWJI       27.20   1.000   P
# 2014 08 17 20 15 15.6  -09.34    112.51     10.0  4.8   0.0   0.0   1.730       468
 WOJI       36.20   1.000   P
 GMJI       39.70   1.000   P
 NGJI       39.90   1.000   P
 GRJI       40.80   1.000   P
 WOJI       62.00   1.000   S
 GRJI       66.40   1.000   S
 NGJI       67.00   1.000   S
# 2014 08 27 12 58 25.2  -09.40    111.82     10.0  4.5   0.0   0.0   1.168       469
 WOJI       30.80   1.000   P
 GMJI       32.50   1.000   P
 NGJI       38.30   1.000   P
 GRJI       43.00   1.000   P
 WOJI       52.30   1.000   S
 NGJI       61.20   1.000   S
# 2014 08 28 08 26 21.1  -08.81    110.00     17.0  4.6   0.0   0.0   0.872       470
 WOJI       23.00   1.000   P
 SNJI       33.10   1.000   P
 NGJI       35.60   1.000   P
 WOJI       39.10   1.000   S
 GRJI       48.60   1.000   P
 GMJI       53.40   1.000   P
 NGJI       65.60   1.000   S
 GRJI       84.90   1.000   S
# 2014 08 29 21 32 41.1  -08.87    110.24     17.0  3.8   0.0   0.0   0.897       471
 WOJI       21.40   1.000   P
 NGJI       32.10   1.000   P
 GMJI       49.70   1.000   P
# 2014 09 02 07 47 55.4  -09.12    111.35     18.0  3.1   0.0   0.0   0.161       472
 WOJI       24.00   1.000   P
 SNJI       24.50   1.000   P
 NGJI       30.60   1.000   P
 GMJI       36.40   1.000   P
 WOJI       41.50   1.000   S
 SNJI       42.90   1.000   S
 GMJI       64.10   1.000   S
# 2014 09 02 18 39 40.8  -10.14    111.15     30.0  4.7   0.0   0.0   0.915       473
 WOJI       35.30   1.000   P
 GMJI       44.00   1.000   P
 NGJI       44.80   1.000   P
 TBJI       51.20   1.000   P
 GRJI       52.20   1.000   P
 WOJI       62.90   1.000   S
# 2014 09 02 20 49 15.6  -07.96    110.47     10.0  3.4   0.0   0.0   0.919       474
 WOJI        8.70   1.000   P
 WOJI       14.30   1.000   S
 NGJI       22.30   1.000   P
 TBJI       30.40   1.000   P
 GRJI       37.30   1.000   P
 GMJI       48.00   1.000   P
 TBJI       54.20   1.000   S
# 2014 09 06 19 50 21.2  -09.67    112.48     18.0  4.9   0.0   0.0   1.566       475
 GMJI       25.30   1.000   P
 WOJI       37.30   1.000   P
 GMJI       41.40   1.000   S
 NGJI       41.50   1.000   P
 TBJI       45.10   1.000   P
 WOJI       63.70   1.000   S
 NGJI       72.90   1.000   S
 TBJI       81.90   1.000   S
# 2014 09 07 10 52 55.1  -09.08    110.08     10.0  4.1   0.0   0.0   0.942       476
 WOJI       25.40   1.000   P
 PWJI       32.60   1.000   P
 NGJI       38.60   1.000   P
 NGJI       38.60   1.000   S
 TBJI       46.30   1.000   P
 GRJI       49.40   1.000   P
 GMJI       53.40   1.000   P
# 2014 09 10 22 05 11.3  -08.81    111.48     54.0  4.0   0.0   0.0   0.554       477
 PWJI       16.40   1.000   P
 SWJI       19.20   1.000   P
 WOJI       19.50   1.000   P
 NGJI       25.10   1.000   P
 PWJI       28.40   1.000   S
 TBJI       30.80   1.000   P
 GMJI       31.80   1.000   P
 GRJI       32.50   1.000   P
 SWJI       33.80   1.000   S
# 2014 09 16 11 59 34.2  -09.15    110.70     10.0  3.6   0.0   0.0   0.861       478
 WOJI       23.50   1.000   P
 PWJI       26.90   1.000   P
 SNJI       29.40   1.000   P
 NGJI       35.30   1.000   P
 WOJI       41.00   1.000   S
 PWJI       48.60   1.000   S
 SNJI       52.60   1.000   S
 NGJI       57.50   1.000   S
