# 2012 04 13 14 47 22.9  -09.01    112.15     58.0  3.5   0.0   0.0   0.949        69
 PWJI       17.90   1.000   P
 PCJI       20.60   1.000   P
 SWJI       22.40   1.000   P
 GMJI       23.00   1.000   P
 WOJI       27.20   1.000   P
 PWJI       31.40   1.000   S
 GRJI       34.10   1.000   P
 PCJI       36.70   1.000   S
 WOJI       47.80   1.000   S
# 2012 04 14 17 11 44.5  -10.59    112.49     15.0  4.5   0.0   0.0   1.131        70
 GMJI       40.40   1.000   P
 PWJI       41.40   1.000   P
 PCJI       41.80   1.000   P
 SWJI       45.30   1.000   P
 WOJI       48.40   1.000   P
 GMJI       69.90   1.000   S
 PCJI       74.70   1.000   S
 WOJI       86.40   1.000   S
 GRJI      101.40   1.000   P
# 2012 04 15 00 48 26.7  -09.00    111.72     59.0  3.1   0.0   0.0   0.942        71
 PCJI       16.70   1.000   P
 PWJI       17.00   1.000   P
 SWJI       21.50   1.000   P
 WOJI       23.70   1.000   P
 PCJI       29.10   1.000   S
 PWJI       29.30   1.000   S
 GMJI       30.40   1.000   P
 SWJI       38.80   1.000   S
 WOJI       41.60   1.000   S
 GMJI       51.30   1.000   S
# 2012 04 17 15 08 37.6  -08.77    112.83    118.0  4.1   0.0   0.0   0.473        72
 GMJI       20.60   1.000   P
 PWJI       24.70   1.000   P
 SWJI       27.20   1.000   P
 PCJI       30.40   1.000   P
 GRJI       31.50   1.000   P
 WOJI       35.00   1.000   P
 TBJI       35.60   1.000   P
 GMJI       35.80   1.000   S
# 2012 04 18 20 02 27.1  -08.96    110.00     10.0  3.3   0.0   0.0   0.572        73
 WOJI       25.50   1.000   P
 PWJI       33.20   1.000   P
 SWJI       36.20   1.000   P
 WOJI       44.00   1.000   S
 PWJI       58.10   1.000   S
 SWJI       63.40   1.000   S
# 2012 04 18 20 23 58.8  -08.07    112.26    167.0  3.6   0.0   0.0   0.625        74
 PWJI       23.90   1.000   P
 SWJI       24.70   1.000   P
 PCJI       28.00   1.000   P
 GRJI       28.10   1.000   P
 GMJI       28.70   1.000   P
 TBJI       29.00   1.000   P
 WOJI       29.90   1.000   P
 PWJI       42.00   1.000   S
 SWJI       44.00   1.000   S
 PCJI       49.20   1.000   S
 GRJI       49.80   1.000   S
 TBJI       51.80   1.000   S
# 2012 04 22 22 55 14.7  -09.50    112.95     12.0  3.7   0.0   0.0   0.472        75
 GMJI       23.30   1.000   P
 PWJI       29.10   1.000   P
 SWJI       34.30   1.000   P
 PCJI       35.50   1.000   P
 WOJI       40.70   1.000   P
 NGJI       41.10   1.000   P
 GRJI       41.80   1.000   P
# 2012 04 26 16 57 08.1  -09.46    112.88     10.0  3.4   0.0   0.0   1.085        76
 GMJI       23.10   1.000   P
 PWJI       29.20   1.000   P
 PCJI       33.60   1.000   P
 SWJI       34.30   1.000   P
 NGJI       43.20   1.000   P
 GRJI       43.30   1.000   P
 PWJI       50.90   1.000   S
# 2012 04 27 04 02 37.3  -07.87    110.59     11.0  2.0   0.0   0.0   0.389        77
 WOJI        8.20   1.000   P
 WOJI       12.80   1.000   S
 PCJI       13.70   1.000   P
 PWJI       23.10   1.000   P
 PCJI       23.60   1.000   S
 PWJI       39.40   1.000   S
# 2012 05 01 06 36 43.7  -08.36    111.90    113.0  2.8   0.0   0.0   0.830        78
 PWJI       17.70   1.000   P
 SWJI       18.50   1.000   P
 PCJI       20.60   1.000   P
 WOJI       23.60   1.000   P
 PWJI       29.70   1.000   S
 SWJI       33.50   1.000   S
 PCJI       34.10   1.000   S
 WOJI       39.50   1.000   S
# 2012 05 07 05 07 36.4  -08.37    112.21     94.0  2.5   0.0   0.0   0.591        79
 PWJI       16.30   1.000   P
 SWJI       19.00   1.000   P
 PCJI       21.10   1.000   P
 PWJI       29.00   1.000   S
 PCJI       35.30   1.000   S
# 2012 05 07 09 39 18.8  -08.35    112.66     93.0  3.5   0.0   0.0   0.503        80
 GMJI       17.90   1.000   P
 PWJI       19.20   1.000   P
 SWJI       21.20   1.000   P
 GRJI       24.70   1.000   P
 PCJI       25.90   1.000   P
 NGJI       26.70   1.000   P
 WOJI       29.80   1.000   P
# 2012 05 08 06 22 32.9  -09.21    112.39     61.0  3.7   0.0   0.0   0.954        81
 PWJI       21.80   1.000   P
 GMJI       22.60   1.000   P
 PCJI       25.20   1.000   P
 SWJI       27.70   1.000   P
 WOJI       30.90   1.000   P
 PWJI       38.30   1.000   S
 GMJI       39.70   1.000   S
 PCJI       44.20   1.000   S
 SWJI       46.30   1.000   S
 WOJI       55.50   1.000   S
# 2012 05 08 09 05 55.5  -08.17    111.46     10.0  3.0   0.0   0.0   0.644        82
 PCJI        6.10   1.000   P
 PWJI        7.30   1.000   P
 PCJI       10.20   1.000   S
 SWJI       10.30   1.000   P
 PWJI       12.00   1.000   S
 WOJI       20.90   1.000   P
 GMJI       34.00   1.000   P
 GMJI       59.70   1.000   S
# 2012 05 08 16 23 43.4  -07.46    111.81    224.0  3.6   0.0   0.0   0.706        83
 SWJI       30.00   1.000   P
 TBJI       30.30   1.000   P
 PWJI       30.40   1.000   P
 NGJI       30.80   1.000   P
 GRJI       31.40   1.000   P
 WOJI       32.20   1.000   P
 PCJI       32.70   1.000   P
 GMJI       39.20   1.000   P
 SWJI       52.70   1.000   S
 NGJI       53.80   1.000   S
 PWJI       55.40   1.000   S
 TBJI       56.20   1.000   S
 GRJI       57.50   1.000   S
 PCJI       58.90   1.000   S
# 2012 05 15 05 31 04.9  -08.73    110.32     25.0  2.9   0.0   0.0   0.689        84
 PCJI       17.70   1.000   P
 WOJI       19.40   1.000   P
 PWJI       26.90   1.000   P
 PCJI       30.70   1.000   S
 WOJI       33.80   1.000   S
 PWJI       46.80   1.000   S
# 2012 05 18 21 41 56.9  -09.30    112.89     10.0  4.0   0.0   0.0   1.124        85
 GMJI       20.60   1.000   P
 PWJI       26.70   1.000   P
 SWJI       31.80   1.000   P
 PCJI       34.30   1.000   P
 GMJI       37.50   1.000   S
 WOJI       37.70   1.000   P
 NGJI       42.00   1.000   P
 PWJI       47.80   1.000   S
# 2012 05 22 11 24 28.2  -08.95    110.16     24.0  4.4   0.0   0.0   0.646        86
 PCJI       21.60   1.000   P
 WOJI       22.30   1.000   P
 PWJI       29.40   1.000   P
 SWJI       31.80   1.000   P
 NGJI       34.00   1.000   P
 UWJI       41.60   1.000   P
 TBJI       42.50   1.000   P
 GRJI       47.30   1.000   P
 GMJI       50.60   1.000   P
 BWJI       59.30   1.000   P
# 2012 05 22 15 13 06.3  -08.86    110.14     10.0  4.0   0.0   0.0   0.709        87
 PCJI       21.40   1.000   P
 WOJI       23.20   1.000   P
 PWJI       30.70   1.000   P
 SWJI       33.30   1.000   P
 NGJI       34.90   1.000   P
 WOJI       40.60   1.000   S
 GRJI       47.90   1.000   P
 PWJI       53.30   1.000   S
 SWJI       58.50   1.000   S
# 2012 05 29 22 30 33.2  -09.57    112.94     10.0  3.3   0.0   0.0   0.699        88
 GMJI       24.40   1.000   P
 PWJI       31.20   1.000   P
 PCJI       37.00   1.000   P
# 2012 06 02 01 48 03.5  -09.47    112.97     24.0  3.5   0.0   0.0   1.098        89
 GMJI       21.10   1.000   P
 PWJI       28.20   1.000   P
 PCJI       33.10   1.000   P
 SWJI       34.50   1.000   P
 GMJI       36.90   1.000   S
 NGJI       38.90   1.000   P
 PWJI       51.10   1.000   S
 SWJI       60.30   1.000   S
 NGJI       72.00   1.000   S
# 2012 06 03 14 25 00.9  -09.98    112.86     10.0  3.2   0.0   0.0   1.005        90
 GMJI       31.80   1.000   P
# 2012 06 03 16 43 41.2  -09.13    112.66     49.0  2.8   0.0   0.0   0.476        91
 GMJI       19.90   1.000   P
 SWJI       26.30   1.000   P
 GMJI       34.50   1.000   S
 SWJI       46.70   1.000   S
# 2012 06 06 14 54 22.5  -09.06    111.22     13.0  3.1   0.0   0.0   0.219        92
 PCJI       16.80   1.000   P
 PWJI       19.30   1.000   P
 SWJI       25.10   1.000   P
 PCJI       29.00   1.000   S
 NGJI       29.50   1.000   P
 GMJI       38.50   1.000   P
# 2012 06 07 23 17 19.7  -08.53    112.72    138.0  3.6   0.0   0.0   0.467        93
 GMJI       23.20   1.000   P
 PWJI       23.20   1.000   P
 SWJI       25.90   1.000   P
 GRJI       29.90   1.000   P
 NGJI       30.90   1.000   P
 GMJI       39.00   1.000   S
 PWJI       42.00   1.000   S
# 2012 06 09 04 56 09.8  -08.70    111.38     83.0  4.1   0.0   0.0   0.696        94
 PCJI       16.00   1.000   P
 PWJI       17.40   1.000   P
 SWJI       19.70   1.000   P
 NGJI       23.90   1.000   P
 PCJI       27.20   1.000   S
 PWJI       28.20   1.000   S
 TBJI       29.90   1.000   P
 GRJI       32.00   1.000   P
 GMJI       33.70   1.000   P
 SWJI       35.30   1.000   S
# 2012 06 09 20 42 08.6  -08.66    111.26     67.0  2.9   0.0   0.0   0.267        95
 PCJI       13.90   1.000   P
 PWJI       15.50   1.000   P
 SWJI       18.70   1.000   P
 NGJI       21.90   1.000   P
 PCJI       23.90   1.000   S
 PWJI       28.00   1.000   S
 SWJI       33.70   1.000   S
# 2012 06 10 15 31 33.8  -09.02    110.45     10.0  2.5   0.0   0.0   0.758        96
 PCJI       19.40   1.000   P
 WOJI       24.40   1.000   P
 PWJI       27.30   1.000   P
 SWJI       31.90   1.000   P
 WOJI       39.60   1.000   S
 SWJI       55.50   1.000   S
# 2012 06 11 12 55 15.5  -05.99    110.61     10.0  3.4   0.0   0.0   0.435        97
 TBJI       26.20   1.000   P
 NGJI       28.70   1.000   P
 WOJI       31.20   1.000   P
 SWJI       34.40   1.000   P
 BWJI       34.70   1.000   P
 GRJI       35.30   1.000   P
 PCJI       36.60   1.000   P
 NGJI       50.00   1.000   S
 NGJI       53.10   1.000   S
 SWJI       68.70   1.000   S
# 2012 06 12 14 10 00.9  -11.21    111.96    119.0  4.2   0.0   0.0   0.754        98
 PWJI       46.00   1.000   P
 PCJI       47.00   1.000   P
 GMJI       49.50   1.000   P
 SWJI       52.30   1.000   P
 PWJI       81.50   1.000   S
 PCJI       84.70   1.000   S
 GMJI       88.70   1.000   S
 SWJI       93.20   1.000   S
# 2012 06 14 14 54 12.3  -08.91    110.27     71.0  4.7   0.0   0.0   1.330        99
 PCJI       20.10   1.000   P
 WOJI       21.10   1.000   P
 PWJI       28.10   1.000   P
 SWJI       30.20   1.000   P
 NGJI       32.80   1.000   P
 PCJI       35.10   1.000   S
 WOJI       36.20   1.000   S
 TBJI       39.60   1.000   P
 GRJI       44.30   1.000   P
 GMJI       47.80   1.000   P
# 2012 06 14 16 30 29.2  -07.92    110.53     10.0  2.7   0.0   0.0   0.301       100
 WOJI        8.10   1.000   P
 PCJI       13.30   1.000   P
 WOJI       14.90   1.000   S
 PCJI       23.00   1.000   S
 PWJI       23.20   1.000   P
# 2012 06 20 19 55 41.7  -09.09    110.15     23.0  3.8   0.0   0.0   1.087       101
 PCJI       20.90   1.000   P
 WOJI       23.30   1.000   P
 PWJI       30.10   1.000   P
 SWJI       32.80   1.000   P
 NGJI       36.20   1.000   P
 PCJI       41.50   1.000   S
 GMJI       51.50   1.000   P
 PWJI       52.50   1.000   S
 SWJI       60.30   1.000   S
# 2012 06 25 06 43 55.3  -06.82    112.45     10.0  3.8   0.0   0.0   0.986       102
 GRJI        1.80   1.000   P
 GRJI        4.50   1.000   S
 TBJI       10.40   1.000   P
 TBJI       20.10   1.000   S
 SWJI       21.00   1.000   P
 NGJI       21.90   1.000   P
 PWJI       23.60   1.000   P
 GMJI       29.90   1.000   P
 WOJI       30.30   1.000   P
 PCJI       30.90   1.000   P
 NGJI       36.20   1.000   S
 SWJI       37.60   1.000   S
 GMJI       52.90   1.000   S
 PCJI       54.90   1.000   S
 WOJI       55.00   1.000   S
# 2012 06 26 05 05 25.3  -08.94    112.46     30.0  4.9   0.0   0.0   0.728       103
 PWJI       18.80   1.000   P
 GMJI       19.80   1.000   P
 SWJI       22.50   1.000   P
 PCJI       24.00   1.000   P
 WOJI       30.10   1.000   P
 NGJI       30.60   1.000   P
 GRJI       31.10   1.000   P
 PWJI       31.30   1.000   S
 TBJI       33.50   1.000   P
# 2012 06 28 11 36 59.6  -09.75    112.97     10.0  4.7   0.0   0.0   0.791       104
 GMJI       26.20   1.000   P
 PWJI       33.60   1.000   P
 SWJI       37.60   1.000   P
 PCJI       37.90   1.000   P
 WOJI       43.80   1.000   P
 GRJI       46.00   1.000   P
 NGJI       46.60   1.000   P
 TBJI       49.60   1.000   P
 PWJI       63.70   1.000   S
 SWJI       68.20   1.000   S
 SWJI       76.70   1.000   S
# 2012 06 28 12 10 03.1  -09.81    112.94     10.0  4.7   0.0   0.0   1.019       105
 GMJI       25.60   1.000   P
 PWJI       34.30   1.000   P
 PCJI       38.40   1.000   P
 SWJI       38.40   1.000   P
 WOJI       44.30   1.000   P
 GRJI       47.60   1.000   P
 NGJI       47.70   1.000   P
 TBJI       51.20   1.000   P
# 2012 06 28 12 20 07.2  -09.65    112.97     10.0  4.2   0.0   0.0   1.388       106
 GMJI       23.90   1.000   P
 PWJI       32.70   1.000   P
 PCJI       36.30   1.000   P
 WOJI       42.80   1.000   P
 GRJI       46.30   1.000   P
 NGJI       46.80   1.000   P
 PWJI       57.10   1.000   S
 PCJI       64.60   1.000   S
 WOJI       75.30   1.000   S
# 2012 07 11 11 01 31.7  -08.93    112.15     99.0  3.2   0.0   0.0   0.680       107
 PWJI       19.70   1.000   P
 PCJI       21.80   1.000   P
 SWJI       23.90   1.000   P
 GMJI       25.90   1.000   P
 WOJI       27.90   1.000   P
 PWJI       34.80   1.000   S
 GMJI       45.50   1.000   S
 WOJI       49.90   1.000   S
# 2012 07 13 01 32 02.4  -09.66    112.97     10.0  4.4   0.0   0.0   0.723       108
 GMJI       24.50   1.000   P
 PWJI       32.30   1.000   P
 PCJI       37.70   1.000   P
 WOJI       43.60   1.000   P
 NGJI       44.80   1.000   P
# 2012 07 14 04 25 29.8  -09.71    112.97     10.0  4.7   0.0   0.0   0.649       109
 GMJI       25.10   1.000   P
 PWJI       33.90   1.000   P
 PCJI       37.70   1.000   P
 SWJI       37.90   1.000   P
 NGJI       44.40   1.000   P
 GRJI       45.00   1.000   P
 GMJI       47.20   1.000   S
 PWJI       56.30   1.000   S
# 2012 07 17 12 21 01.6  -07.73    111.96     14.0  2.6   0.0   0.0   0.939       110
 SWJI        6.30   1.000   P
 SWJI       10.20   1.000   S
 PWJI       10.80   1.000   P
 NGJI       13.10   1.000   P
 TBJI       17.00   1.000   P
 PCJI       17.40   1.000   P
 PWJI       17.70   1.000   S
 WOJI       19.80   1.000   P
 GRJI       20.30   1.000   P
 TBJI       28.70   1.000   S
# 2012 07 17 13 01 20.8  -07.78    112.07    187.0  3.8   0.0   0.0   1.097       111
 SWJI       25.40   1.000   P
 PWJI       25.70   1.000   P
 GRJI       26.90   1.000   P
 NGJI       27.10   1.000   P
 PCJI       29.60   1.000   P
 WOJI       29.90   1.000   P
 SWJI       45.30   1.000   S
 PWJI       46.30   1.000   S
# 2012 07 17 16 11 09.4  -10.59    112.75     10.0  4.0   0.0   0.0   0.867       112
 PCJI       44.60   1.000   P
 SWJI       48.40   1.000   P
 WOJI       51.50   1.000   P
 GRJI       57.70   1.000   P
 PWJI       74.60   1.000   P
 PCJI       79.50   1.000   S
 SWJI       84.00   1.000   S
# 2012 07 18 03 37 14.9  -09.43    112.61     16.0  3.5   0.0   0.0   0.606       113
 PWJI       26.20   1.000   P
 PCJI       30.50   1.000   P
 SWJI       32.10   1.000   P
 GRJI       40.70   1.000   P
 PWJI       44.40   1.000   S
# 2012 07 18 21 43 00.2  -10.22    112.59     18.0  4.3   0.0   0.0   0.526       114
 PWJI       35.00   1.000   P
 PCJI       38.30   1.000   P
 SWJI       40.40   1.000   P
 WOJI       45.00   1.000   P
 NGJI       47.20   1.000   P
 GRJI       50.80   1.000   P
 TBJI       52.70   1.000   P
 PWJI       61.60   1.000   S
 PCJI       69.80   1.000   S
 NGJI       84.50   1.000   S
# 2012 07 22 13 00 32.7  -08.19    111.48    133.0  4.1   0.0   0.0   0.643       115
 PWJI       19.20   1.000   P
 PCJI       19.30   1.000   P
 SWJI       20.20   1.000   P
 WOJI       21.00   1.000   P
 NGJI       23.20   1.000   P
 TBJI       27.40   1.000   P
 GRJI       29.60   1.000   P
 GMJI       33.40   1.000   P
 PWJI       34.00   1.000   S
 PCJI       34.40   1.000   S
 SWJI       36.40   1.000   S
 WOJI       37.30   1.000   S
 GMJI       59.80   1.000   S
# 2012 07 28 03 11 57.4  -08.79    110.51     13.0  3.2   0.0   0.0   0.938       116
 PCJI       16.80   1.000   P
 WOJI       19.60   1.000   P
 PWJI       25.90   1.000   P
 NGJI       27.90   1.000   P
 SWJI       28.80   1.000   P
 PCJI       29.50   1.000   S
 WOJI       34.30   1.000   S
 PWJI       43.60   1.000   S
# 2012 07 31 13 59 17.1  -10.21    110.61     17.0  4.3   0.0   0.0   1.191       117
 PCJI       31.10   1.000   P
 WOJI       35.30   1.000   P
 PWJI       37.80   1.000   P
 SWJI       41.60   1.000   P
 NGJI       46.70   1.000   P
 GMJI       53.70   1.000   P
 GRJI       57.90   1.000   P
 PCJI       61.10   1.000   S
 WOJI       68.40   1.000   S
 WOJI       79.40   1.000   S
# 2012 08 02 17 10 20.1  -09.10    111.27     12.0  3.9   0.0   0.0   0.870       118
 PCJI       16.40   1.000   P
 PWJI       21.30   1.000   P
 SWJI       25.30   1.000   P
 PWJI       35.00   1.000   S
 GMJI       37.10   1.000   P
 SWJI       44.20   1.000   S
# 2012 08 04 10 54 58.8  -05.86    110.56    549.0  4.6   0.0   0.0   0.549       119
 NGJI       68.70   1.000   P
 GRJI       70.90   1.000   P
 SWJI       71.10   1.000   P
 PCJI       71.60   1.000   P
 PWJI       72.60   1.000   P
 NGJI      125.30   1.000   S
 GRJI      128.70   1.000   S
 SWJI      129.10   1.000   S
# 2012 08 07 02 12 38.5  -08.67    111.04     38.0  3.4   0.0   0.0   0.588       120
 PCJI       11.10   1.000   P
 WOJI       15.20   1.000   P
 PWJI       16.40   1.000   P
 SWJI       19.20   1.000   P
 PCJI       20.80   1.000   S
 NGJI       22.60   1.000   P
 PWJI       29.40   1.000   S
 SWJI       34.60   1.000   S
# 2012 08 07 14 32 15.8  -09.38    112.28     38.0  4.8   0.0   0.0   0.811       121
 PWJI       22.80   1.000   P
 PCJI       24.90   1.000   P
 SWJI       26.80   1.000   P
 WOJI       31.30   1.000   P
 GRJI       37.90   1.000   P
 TBJI       39.90   1.000   P
 PCJI       45.50   1.000   S
 SWJI       49.40   1.000   S
 WOJI       56.90   1.000   S
 GRJI       67.20   1.000   S
 TBJI       70.60   1.000   S
# 2012 08 12 13 18 31.4  -10.39    110.98     16.0  4.5   0.0   0.0   0.902       122
 PCJI       34.00   1.000   P
 PWJI       38.40   1.000   P
 SWJI       42.50   1.000   P
 GMJI       48.70   1.000   P
 NGJI       49.50   1.000   P
# 2012 08 15 10 34 08.6  -08.66    110.54     11.0  3.1   0.0   0.0   0.381       123
 PCJI       14.50   1.000   P
 PWJI       24.40   1.000   P
 SWJI       27.00   1.000   P
 PWJI       41.80   1.000   S
 SWJI       46.90   1.000   S
# 2012 08 16 03 55 56.1  -09.58    112.86     15.0  3.2   0.0   0.0   1.094       124
 GMJI       24.70   1.000   P
 PWJI       30.30   1.000   P
 PCJI       36.00   1.000   P
 GMJI       42.10   1.000   S
 PWJI       52.40   1.000   S
# 2012 08 18 08 51 15.8  -08.65    111.44    114.0  3.7   0.0   0.0   0.436       125
 PCJI       18.30   1.000   P
 PWJI       19.00   1.000   P
 SWJI       21.70   1.000   P
 GRJI       33.00   1.000   P
# 2012 08 18 16 59 28.9  -08.55    112.71    127.0  2.8   0.0   0.0   0.469       126
 GMJI       20.70   1.000   P
 PWJI       22.70   1.000   P
 SWJI       24.90   1.000   P
 PCJI       28.70   1.000   P
 GRJI       29.40   1.000   P
 PWJI       40.40   1.000   S
 SWJI       44.70   1.000   S
# 2012 08 22 01 15 41.8  -09.10    112.39     88.0  3.7   0.0   0.0   0.622       127
 PWJI       21.40   1.000   P
 GMJI       23.20   1.000   P
 SWJI       25.20   1.000   P
 PCJI       25.40   1.000   P
 NGJI       33.00   1.000   P
 GRJI       34.10   1.000   P
 TBJI       36.10   1.000   P
# 2012 08 28 17 59 44.5  -08.19    112.04    122.0  3.1   0.0   0.0   0.406       128
 PWJI       17.80   1.000   P
 SWJI       18.60   1.000   P
 PCJI       21.80   1.000   P
 NGJI       22.10   1.000   P
 WOJI       24.10   1.000   P
 GMJI       26.20   1.000   P
 PWJI       31.10   1.000   S
 WOJI       42.80   1.000   S
# 2012 08 30 10 41 29.7  -09.15    111.21     10.0  2.8   0.0   0.0   0.653       129
 PCJI       17.90   1.000   P
 PWJI       20.70   1.000   P
 WOJI       23.50   1.000   P
 PCJI       30.60   1.000   S
 PWJI       36.40   1.000   S
 WOJI       42.50   1.000   S
# 2012 09 03 13 10 55.4  -08.78    111.36     88.0  3.8   0.0   0.0   0.560       130
 PCJI       16.40   1.000   P
 PWJI       17.80   1.000   P
 WOJI       19.50   1.000   P
 SWJI       20.70   1.000   P
