# 2012 01 01 18 01 30.4  -07.94    111.65     10.0  2.6   0.0   0.0   0.817         1
 SWJI        5.80   1.000   P
 PWJI        7.10   1.000   P
 SWJI        9.40   1.000   S
 PWJI       11.40   1.000   S
 PCJI       11.70   1.000   P
 PCJI       19.20   1.000   S
 GMJI       32.80   1.000   P
# 2012 01 02 18 39 51.9  -08.87    111.45     28.0  2.9   0.0   0.0   1.113         2
 PCJI       13.80   1.000   P
 PWJI       15.80   1.000   P
 SWJI       20.50   1.000   P
 PCJI       23.60   1.000   S
 PWJI       27.30   1.000   S
 GMJI       31.60   1.000   P
 SWJI       35.50   1.000   S
# 2012 01 03 14 11 50.7  -09.81    112.97     18.0  3.4   0.0   0.0   0.331         3
 GMJI       27.20   1.000   P
 PWJI       33.30   1.000   P
 PCJI       37.90   1.000   P
 SWJI       38.40   1.000   P
 GRJI       45.80   1.000   P
 GMJI       47.80   1.000   S
 PWJI       57.50   1.000   S
# 2012 01 03 19 12 22.5  -09.11    111.79    109.0  2.7   0.0   0.0   0.624         4
 PWJI       20.40   1.000   P
 PCJI       21.10   1.000   P
 SWJI       26.20   1.000   P
 GMJI       30.70   1.000   P
 PWJI       37.30   1.000   S
 PCJI       38.80   1.000   S
 SWJI       45.50   1.000   S
 GMJI       54.80   1.000   S
# 2012 01 06 13 19 44.6  -08.65    112.31     96.0  3.8   0.0   0.0   0.651         5
 PWJI       18.60   1.000   P
 SWJI       21.20   1.000   P
 GMJI       22.80   1.000   P
 PCJI       23.20   1.000   P
 GRJI       28.30   1.000   P
 PWJI       29.80   1.000   S
 SWJI       37.50   1.000   S
 PCJI       40.80   1.000   S
# 2012 01 07 04 46 31.9  -08.94    111.09     60.0  2.7   0.0   0.0   0.923         6
 PCJI       15.10   1.000   P
 PWJI       18.10   1.000   P
 SWJI       23.00   1.000   P
 PCJI       27.30   1.000   S
 PWJI       34.00   1.000   S
 SWJI       39.40   1.000   S
# 2012 01 11 12 00 31.7  -08.94    111.18     14.0  2.9   0.0   0.0   0.524         7
 PCJI       14.60   1.000   P
 PWJI       18.70   1.000   P
 SWJI       22.70   1.000   P
 PCJI       25.40   1.000   S
 PWJI       31.50   1.000   S
 SWJI       41.80   1.000   S
# 2012 01 11 16 23 21.1  -08.85    110.81     68.0  4.1   0.0   0.0   0.551         8
 PCJI       15.60   1.000   P
 PWJI       22.40   1.000   P
 SWJI       24.50   1.000   P
 PCJI       27.80   1.000   S
 TBJI       34.90   1.000   P
 UWJI       37.00   1.000   P
 PWJI       37.10   1.000   S
 GRJI       38.80   1.000   P
 GMJI       41.30   1.000   P
 SWJI       42.80   1.000   S
 BWJI       52.40   1.000   P
 TBJI       62.60   1.000   S
 UWJI       66.50   1.000   S
 GRJI       68.50   1.000   S
 GMJI       73.10   1.000   S
 BWJI       92.70   1.000   S
# 2012 01 12 11 43 26.4  -08.68    111.80     64.0  3.1   0.0   0.0   0.387         9
 PWJI       14.00   1.000   P
 PCJI       15.70   1.000   P
 SWJI       17.90   1.000   P
 PWJI       24.10   1.000   S
 GMJI       27.50   1.000   P
 SWJI       31.10   1.000   S
 GMJI       48.30   1.000   S
# 2012 01 13 04 16 27.6  -08.49    111.53     29.0  3.8   0.0   0.0   0.852        10
 PCJI       10.30   1.000   P
 PWJI       10.30   1.000   P
 SWJI       14.90   1.000   P
 PCJI       18.00   1.000   S
 PWJI       18.10   1.000   S
 SWJI       26.40   1.000   S
 GMJI       30.50   1.000   P
# 2012 01 14 18 28 29.7  -08.95    111.17     16.0  2.5   0.0   0.0   0.562        11
 PCJI       14.80   1.000   P
 PWJI       18.40   1.000   P
 SWJI       24.80   1.000   P
 PCJI       25.80   1.000   S
 PWJI       32.00   1.000   S
 SWJI       41.10   1.000   S
# 2012 01 14 20 10 14.3  -10.26    110.47     24.0  4.6   0.0   0.0   0.826        12
 PCJI       33.20   1.000   P
 PWJI       38.90   1.000   P
 SWJI       42.50   1.000   P
 UWJI       57.40   1.000   P
 GRJI       58.20   1.000   P
 PCJI       61.30   1.000   S
 PWJI       66.90   1.000   S
# 2012 01 14 21 38 20.1  -09.65    112.79     69.0  3.8   0.0   0.0   0.947        13
 PWJI       29.10   1.000   P
 SWJI       33.20   1.000   P
 PCJI       33.40   1.000   P
# 2012 01 19 01 09 39.3  -08.99    111.13     22.0  3.0   0.0   0.0   1.225        14
 PCJI       14.50   1.000   P
 PWJI       19.60   1.000   P
 SWJI       23.10   1.000   P
 PCJI       26.80   1.000   S
 PWJI       34.80   1.000   S
 SWJI       40.50   1.000   S
# 2012 01 19 14 58 34.8  -09.13    112.69     11.0  3.0   0.0   0.0   0.651        15
 GMJI       21.20   1.000   P
 PWJI       23.80   1.000   P
 SWJI       27.80   1.000   P
 PCJI       29.60   1.000   P
 GMJI       36.00   1.000   S
 PWJI       40.20   1.000   S
# 2012 01 22 04 23 21.5  -09.27    112.94     10.0  3.0   0.0   0.0   1.039        16
 GMJI       20.40   1.000   P
 PWJI       26.40   1.000   P
 SWJI       32.00   1.000   P
 GMJI       34.20   1.000   S
 PWJI       48.80   1.000   S
# 2012 01 22 07 02 48.6  -09.19    112.94     10.0  2.9   0.0   0.0   0.320        17
 GMJI       19.80   1.000   P
 PWJI       26.50   1.000   P
 SWJI       31.70   1.000   P
 GMJI       33.90   1.000   S
 PWJI       46.00   1.000   S
# 2012 01 22 09 26 43.2  -06.06    110.87    138.0  3.7   0.0   0.0   0.482        18
 TBJI       25.30   1.000   P
 BWJI       31.60   1.000   P
 GRJI       32.80   1.000   P
 SWJI       33.00   1.000   P
 PCJI       36.40   1.000   P
 PWJI       38.30   1.000   P
 TBJI       45.60   1.000   S
 GMJI       51.90   1.000   P
 BWJI       57.10   1.000   S
 GRJI       58.60   1.000   S
# 2012 01 22 10 14 52.6  -08.82    112.52     42.0  3.7   0.0   0.0   0.546        19
 GMJI       17.10   1.000   P
 PWJI       17.40   1.000   P
 SWJI       21.00   1.000   P
 PCJI       22.80   1.000   P
 GRJI       29.50   1.000   P
 GMJI       32.10   1.000   S
 SWJI       38.10   1.000   S
# 2012 02 01 12 04 32.6  -08.81    111.16     66.0  3.4   0.0   0.0   0.928        20
 PCJI       14.00   1.000   P
 PWJI       18.20   1.000   P
 SWJI       21.20   1.000   P
 PCJI       24.70   1.000   S
 PWJI       32.60   1.000   S
 SWJI       37.50   1.000   S
# 2012 02 03 04 01 50.5  -08.81    111.47     25.0  4.8   0.0   0.0   0.570        21
 PCJI       12.90   1.000   P
 SWJI       19.40   1.000   P
 PCJI       23.20   1.000   S
 TBJI       33.20   1.000   P
 GRJI       34.60   1.000   P
 SWJI       35.40   1.000   S
 BWJI       47.60   1.000   P
# 2012 02 03 17 10 49.7  -08.69    111.29     36.0  2.9   0.0   0.0   0.790        22
 PCJI       10.90   1.000   P
 PWJI       13.70   1.000   P
 SWJI       17.60   1.000   P
 PCJI       20.90   1.000   S
 PWJI       25.80   1.000   S
 SWJI       32.50   1.000   S
# 2012 02 03 21 51 23.6  -08.81    111.45     23.0  3.6   0.0   0.0   0.790        23
 PCJI       13.00   1.000   P
 PWJI       15.80   1.000   P
 SWJI       19.70   1.000   P
 PCJI       22.80   1.000   S
 GRJI       34.60   1.000   P
 SWJI       35.50   1.000   S
# 2012 02 05 18 49 16.9  -08.64    111.18     57.0  3.3   0.0   0.0   0.660        24
 PCJI       12.30   1.000   P
 PWJI       16.30   1.000   P
 SWJI       19.70   1.000   P
 PCJI       21.90   1.000   S
 PWJI       28.20   1.000   S
# 2012 02 09 03 50 57.1  -08.91    110.60     24.0  3.3   0.0   0.0   1.207        25
 PCJI       16.50   1.000   P
 PWJI       24.00   1.000   P
 SWJI       26.70   1.000   P
 PCJI       28.90   1.000   S
 PWJI       42.80   1.000   S
 SWJI       47.50   1.000   S
# 2012 02 16 14 51 47.4  -07.96    112.04    173.0  3.3   0.0   0.0   0.618        26
 PWJI       24.00   1.000   P
 SWJI       24.40   1.000   P
 PCJI       27.20   1.000   P
 GRJI       27.70   1.000   P
 TBJI       27.90   1.000   P
 GMJI       30.70   1.000   P
 BWJI       40.00   1.000   P
 PWJI       43.30   1.000   S
 PCJI       48.50   1.000   S
 GRJI       50.60   1.000   S
 GMJI       55.30   1.000   S
# 2012 02 16 20 53 31.3  -08.65    111.71     77.0  3.0   0.0   0.0   0.681        27
 PWJI       15.10   1.000   P
 PCJI       16.30   1.000   P
 SWJI       18.60   1.000   P
 PWJI       26.00   1.000   S
 PCJI       27.90   1.000   S
 GMJI       29.20   1.000   P
 SWJI       32.50   1.000   S
 GMJI       51.80   1.000   S
 GRJI       53.90   1.000   P
# 2012 02 16 22 34 49.2  -09.44    112.97     32.0  2.6   0.0   0.0   0.223        28
 GMJI       21.40   1.000   P
 PWJI       27.10   1.000   P
 GMJI       37.10   1.000   S
 PWJI       48.70   1.000   S
# 2012 02 18 22 19 59.4  -08.06    112.74     17.0  2.2   0.0   0.0   0.407        29
 GMJI       14.20   1.000   P
 PWJI       16.50   1.000   P
 GRJI       20.20   1.000   P
 PCJI       26.20   1.000   P
 PWJI       30.10   1.000   S
# 2012 02 18 22 40 35.4  -09.02    111.16     12.0  2.7   0.0   0.0   0.581        30
 PCJI       15.00   1.000   P
 PWJI       18.50   1.000   P
 SWJI       23.00   1.000   P
 PCJI       26.70   1.000   S
 PWJI       33.00   1.000   S
# 2012 02 19 05 07 29.7  -08.99    110.62     15.0  3.1   0.0   0.0   0.638        31
 PCJI       16.70   1.000   P
 PWJI       23.90   1.000   P
 SWJI       28.20   1.000   P
 PCJI       30.10   1.000   S
 PWJI       42.10   1.000   S
 GRJI       44.60   1.000   P
# 2012 02 19 16 36 06.4  -09.74    112.00     71.0  3.9   0.0   0.0   0.491        32
 PWJI       25.00   1.000   P
 PCJI       28.90   1.000   P
 SWJI       31.50   1.000   P
 GMJI       31.60   1.000   P
 GRJI       43.30   1.000   P
 PWJI       44.70   1.000   S
 PCJI       51.20   1.000   S
 BWJI       57.20   1.000   P
 SWJI       57.50   1.000   S
 GMJI       58.10   1.000   S
 GRJI       77.70   1.000   S
 TBJI       80.10   1.000   P
 BWJI      103.80   1.000   S
# 2012 02 19 23 49 07.9  -11.16    112.72    109.0  4.3   0.0   0.0   1.380        33
 GMJI       45.20   1.000   P
 PWJI       47.00   1.000   P
 PCJI       48.30   1.000   P
 SWJI       50.70   1.000   P
 GMJI       79.80   1.000   S
 PWJI       85.50   1.000   S
 PCJI       87.10   1.000   S
 SWJI       95.00   1.000   S
 GRJI      113.10   1.000   P
# 2012 02 21 11 07 49.4  -07.96    110.49     10.0  2.8   0.0   0.0   0.379        34
 PCJI       13.90   1.000   P
 PWJI       23.60   1.000   P
 SWJI       23.80   1.000   P
 PCJI       24.20   1.000   S
 TBJI       30.50   1.000   P
 SWJI       41.20   1.000   S
 PWJI       42.10   1.000   S
 TBJI       53.90   1.000   S
 GRJI       65.00   1.000   P
# 2012 02 21 11 38 18.8  -08.73    111.29     31.0  2.8   0.0   0.0   0.502        35
 PCJI       11.40   1.000   P
 PWJI       14.50   1.000   P
 SWJI       19.00   1.000   P
 PCJI       21.30   1.000   S
 PWJI       25.50   1.000   S
 SWJI       33.30   1.000   S
# 2012 02 22 02 23 46.3  -08.28    111.48     88.0  2.1   0.0   0.0   0.000        36
 PCJI       14.50   1.000   P
 PWJI       14.60   1.000   P
 SWJI       16.80   1.000   P
 SWJI       29.80   1.000   S
# 2012 02 22 08 57 47.4  -09.22    112.67     57.0  2.7   0.0   0.0   0.001        37
 GMJI       20.80   1.000   P
 PWJI       22.20   1.000   P
 GMJI       36.90   1.000   S
# 2012 02 22 09 01 29.9  -09.03    110.40     25.0  3.1   0.0   0.0   0.344        38
 PCJI       19.00   1.000   P
 PWJI       26.50   1.000   P
 SWJI       30.70   1.000   P
 PCJI       34.60   1.000   S
# 2012 02 22 16 40 53.6  -08.32    112.60    147.0  2.5   0.0   0.0   0.556        39
 GMJI       24.50   1.000   P
 PWJI       24.50   1.000   P
 SWJI       25.30   1.000   P
 PCJI       27.70   1.000   P
 GRJI       28.70   1.000   P
 TBJI       31.80   1.000   P
 PWJI       42.50   1.000   S
 GMJI       42.80   1.000   S
# 2012 02 22 20 05 22.9  -08.99    110.53     13.0  3.1   0.0   0.0   0.583        40
 PCJI       16.30   1.000   P
 PWJI       25.10   1.000   P
 SWJI       27.70   1.000   P
 PCJI       31.40   1.000   S
 PWJI       44.00   1.000   S
 GMJI       46.00   1.000   P
 SWJI       51.20   1.000   S
# 2012 02 22 20 33 39.2  -08.97    110.60     14.0  2.9   0.0   0.0   0.442        41
 PCJI       16.50   1.000   P
 PWJI       24.80   1.000   P
 SWJI       27.90   1.000   P
 PCJI       30.40   1.000   S
 GMJI       45.70   1.000   P
# 2012 02 23 12 15 42.8  -08.72    110.80     12.0  2.2   0.0   0.0   0.337        42
 PCJI       11.70   1.000   P
 PWJI       19.60   1.000   P
 PCJI       21.80   1.000   S
 SWJI       23.80   1.000   P
 PWJI       35.30   1.000   S
 SWJI       41.50   1.000   S
# 2012 02 23 15 35 24.8  -08.47    111.40    105.0  1.9   0.0   0.0   0.104        43
 PCJI       16.30   1.000   P
 PWJI       17.10   1.000   P
 SWJI       19.60   1.000   P
 PCJI       29.60   1.000   S
 PWJI       30.90   1.000   S
 SWJI       34.80   1.000   S
# 2012 02 23 20 32 28.8  -08.62    110.70     12.0  2.9   0.0   0.0   0.881        44
 PCJI       11.70   1.000   P
 PCJI       20.10   1.000   S
 PWJI       21.00   1.000   P
 SWJI       23.80   1.000   P
 PWJI       35.80   1.000   S
 SWJI       42.00   1.000   S
# 2012 02 23 22 53 08.8  -08.81    112.51     57.0  2.9   0.0   0.0   0.470        45
 PWJI       18.10   1.000   P
 GMJI       18.80   1.000   P
 PCJI       23.60   1.000   P
# 2012 02 29 00 03 13.4  -09.28    112.51     54.0  4.2   0.0   0.0   0.891        46
 PWJI       23.30   1.000   P
 PCJI       27.20   1.000   P
 SWJI       27.20   1.000   P
 GRJI       36.80   1.000   P
 PWJI       39.80   1.000   S
 TBJI       40.00   1.000   P
 PCJI       47.10   1.000   S
 SWJI       48.40   1.000   S
 GRJI       63.80   1.000   S
# 2012 02 29 02 30 05.4  -09.52    112.83     62.0  3.1   0.0   0.0   0.338        47
 GMJI       22.50   1.000   P
 PWJI       27.10   1.000   P
 SWJI       32.00   1.000   P
 PCJI       32.60   1.000   P
 PCJI       57.90   1.000   S
# 2012 03 06 00 50 07.4  -09.40    110.39     10.0  3.6   0.0   0.0   0.255        48
 PWJI       31.40   1.000   P
 SWJI       35.50   1.000   P
 PWJI       54.70   1.000   S
 SWJI       63.60   1.000   S
# 2012 03 07 04 40 57.4  -08.72    111.46     29.0  3.7   0.0   0.0   0.777        49
 PCJI       11.60   1.000   P
 PWJI       14.10   1.000   P
 SWJI       18.50   1.000   P
 PWJI       20.90   1.000   S
 PCJI       21.80   1.000   S
 GMJI       30.60   1.000   P
 GMJI       55.70   1.000   S
# 2012 03 09 16 41 17.1  -08.80    110.21     26.0  3.4   0.0   0.0   0.502        50
 PCJI       19.00   1.000   P
 PWJI       28.20   1.000   P
 SWJI       30.70   1.000   P
 PWJI       49.10   1.000   S
 GMJI       49.20   1.000   P
 SWJI       53.50   1.000   S
# 2012 03 09 21 27 09.4  -09.24    112.94     68.0  4.7   0.0   0.0   1.348        51
 GMJI       18.40   1.000   P
 PWJI       26.50   1.000   P
 SWJI       30.00   1.000   P
 GMJI       32.00   1.000   S
 PCJI       32.00   1.000   P
 GRJI       37.00   1.000   P
 TBJI       41.10   1.000   P
 PWJI       46.00   1.000   S
 BWJI       51.00   1.000   P
 SWJI       54.90   1.000   S
 PCJI       55.60   1.000   S
 GRJI       64.60   1.000   S
 TBJI       71.10   1.000   S
# 2012 03 12 14 06 52.5  -07.96    111.68     10.0  2.1   0.0   0.0   0.356        52
 SWJI        5.80   1.000   P
 PWJI        7.10   1.000   P
 PWJI       11.30   1.000   S
 PCJI       11.80   1.000   P
 PCJI       19.30   1.000   S
# 2012 03 16 14 50 39.6  -09.12    112.48     60.0  3.6   0.0   0.0   0.475        53
 PWJI       20.70   1.000   P
 GMJI       21.60   1.000   P
 SWJI       24.60   1.000   P
 PCJI       25.30   1.000   P
 GMJI       38.30   1.000   S
# 2012 03 19 02 19 37.5  -08.03    110.43     10.0  4.2   0.0   0.0   0.948        54
 PCJI       14.40   1.000   P
 PWJI       24.00   1.000   P
 SWJI       24.30   1.000   P
 PCJI       24.80   1.000   S
 TBJI       31.70   1.000   P
 GRJI       37.60   1.000   P
 PWJI       41.20   1.000   S
 GMJI       48.00   1.000   P
 TBJI       55.80   1.000   S
 GRJI       67.00   1.000   S
 GMJI       86.40   1.000   S
# 2012 03 21 06 02 41.1  -09.08    112.73     10.0  3.4   0.0   0.0   0.697        55
 GMJI       19.40   1.000   P
 PWJI       23.80   1.000   P
 SWJI       28.00   1.000   P
 PCJI       30.10   1.000   P
 GMJI       35.00   1.000   S
 PWJI       41.10   1.000   S
 SWJI       51.00   1.000   S
 PCJI       53.90   1.000   S
# 2012 03 22 14 59 45.4  -09.51    112.77     21.0  3.8   0.0   0.0   0.966        56
 PWJI       28.20   1.000   P
 PCJI       32.60   1.000   P
 SWJI       32.80   1.000   P
 GRJI       42.10   1.000   P
 PWJI       49.00   1.000   S
 PCJI       58.10   1.000   S
# 2012 03 22 18 49 06.1  -07.77    112.96     11.0  2.7   0.0   0.0   0.597        57
 GRJI       18.10   1.000   P
 PWJI       21.20   1.000   P
 SWJI       22.50   1.000   P
 GRJI       32.20   1.000   S
 SWJI       38.00   1.000   S
# 2012 03 24 17 21 55.4  -08.41    111.03     15.0  3.2   0.0   0.0   0.600        58
 PCJI        6.50   1.000   P
 PCJI       11.00   1.000   S
 PWJI       15.30   1.000   P
 SWJI       18.00   1.000   P
 PWJI       26.30   1.000   S
 SWJI       31.40   1.000   S
 GRJI       34.40   1.000   P
 GMJI       38.20   1.000   P
 GRJI       61.10   1.000   S
# 2012 03 26 20 41 46.4  -10.97    111.87     10.0  4.1   0.0   0.0   0.840        59
 PCJI       44.50   1.000   P
 PWJI       45.90   1.000   P
 GMJI       49.30   1.000   P
 SWJI       50.90   1.000   P
 GRJI       63.30   1.000   P
 PCJI       80.20   1.000   S
 GMJI       86.30   1.000   S
 SWJI       90.70   1.000   S
 GRJI      111.30   1.000   S
# 2012 03 27 19 25 39.2  -08.69    112.42     51.0  3.1   0.0   0.0   0.589        60
 PWJI       15.80   1.000   P
 GMJI       18.90   1.000   P
 SWJI       19.70   1.000   P
 PCJI       21.30   1.000   P
 GRJI       27.30   1.000   P
 TBJI       29.60   1.000   P
 SWJI       35.20   1.000   S
# 2012 03 28 20 27 20.6  -09.42    110.46     25.0  3.0   0.0   0.0   0.394        61
 PCJI       22.90   1.000   P
 PWJI       29.80   1.000   P
 SWJI       34.00   1.000   P
 PCJI       41.90   1.000   S
 PWJI       52.30   1.000   S
 SWJI       60.30   1.000   S
# 2012 03 29 15 57 06.5  -09.21    110.30     18.0  2.9   0.0   0.0   0.504        62
 PCJI       22.10   1.000   P
 PWJI       30.50   1.000   P
 SWJI       33.60   1.000   P
 PCJI       40.60   1.000   S
 PWJI       53.00   1.000   S
 SWJI       59.30   1.000   S
# 2012 03 31 03 06 12.5  -08.89    111.17     23.0  3.8   0.0   0.0   0.854        63
 PCJI       13.30   1.000   P
 PWJI       18.60   1.000   P
 SWJI       22.40   1.000   P
 PCJI       23.30   1.000   S
 PWJI       32.00   1.000   S
 TBJI       35.30   1.000   P
 GMJI       36.10   1.000   P
 GRJI       37.90   1.000   P
 SWJI       39.40   1.000   S
# 2012 03 31 03 46 40.5  -09.05    112.91     33.0  4.0   0.0   0.0   0.399        64
 GMJI       17.20   1.000   P
 PWJI       23.50   1.000   P
 SWJI       27.20   1.000   P
 GMJI       30.00   1.000   S
 PCJI       30.30   1.000   P
 GRJI       33.90   1.000   P
 PWJI       41.40   1.000   S
# 2012 04 02 12 48 22.4  -06.86    112.47     19.0  3.2   0.0   0.0   0.806        65
 GRJI        2.80   1.000   P
 TBJI       12.70   1.000   P
 BWJI       18.60   1.000   P
 SWJI       21.20   1.000   P
 TBJI       23.30   1.000   S
 PWJI       26.30   1.000   P
 PCJI       31.00   1.000   P
 BWJI       33.10   1.000   S
# 2012 04 07 20 32 28.3  -09.11    110.52     43.0  4.4   0.0   0.0   0.662        66
 PCJI       19.20   1.000   P
 WOJI       22.10   1.000   P
 SWJI       29.30   1.000   P
 PCJI       33.20   1.000   S
 WOJI       37.80   1.000   S
 TBJI       40.50   1.000   P
 GRJI       44.20   1.000   P
 GMJI       45.10   1.000   P
 SWJI       51.60   1.000   S
# 2012 04 11 20 51 20.5  -08.63    110.76     10.0  2.6   0.0   0.0   0.230        67
 PCJI       11.20   1.000   P
 PWJI       19.40   1.000   P
 SWJI       23.60   1.000   P
 PWJI       35.30   1.000   S
 SWJI       41.50   1.000   S
# 2012 04 12 12 41 36.3  -10.07    112.97    114.0  3.6   0.0   0.0   0.174        68
 GMJI       31.20   1.000   P
 PWJI       35.50   1.000   P
 PCJI       40.60   1.000   P
 SWJI       41.10   1.000   P
 GMJI       56.30   1.000   S
 PCJI       73.20   1.000   S
 WOJI       83.20   1.000   P
