# 2014 09 17 22 10 44.4  -09.36    112.81     10.0  3.9   0.0   0.0   0.802       479
 PWJI       29.20   1.000   P
 SNJI       33.50   1.000   P
 WOJI       39.90   1.000   P
 NGJI       44.10   1.000   P
 NGJI       44.30   1.000   S
 PWJI       50.50   1.000   S
 SNJI       57.80   1.000   S
 WOJI       69.40   1.000   S
# 2014 09 19 17 51 01.2  -08.98    111.63     79.0  3.1   0.0   0.0   0.268       480
 PWJI       19.10   1.000   P
 SNJI       22.00   1.000   P
 WOJI       23.50   1.000   P
 PWJI       33.00   1.000   S
 SNJI       38.20   1.000   S
 WOJI       40.70   1.000   S
# 2014 09 22 12 33 21.3  -08.90    112.49     10.0  3.2   0.0   0.0   0.455       481
 PWJI       21.00   1.000   P
 SNJI       24.40   1.000   P
 GRJI       33.90   1.000   P
 PWJI       35.50   1.000   S
 TBJI       36.60   1.000   P
 SNJI       41.70   1.000   S
# 2014 09 25 09 06 09.1  -08.98    111.08     63.0  4.8   0.0   0.0   0.976       482
 WOJI       20.20   1.000   P
 PWJI       21.10   1.000   P
 SNJI       23.30   1.000   P
 WOJI       34.90   1.000   S
 TBJI       35.30   1.000   P
 PWJI       36.20   1.000   S
 GRJI       38.20   1.000   P
 SNJI       40.20   1.000   S
 BWJI       51.90   1.000   P
# 2014 09 25 21 33 16.7  -09.09    111.39     10.0  3.8   0.0   0.0   0.553       483
 PWJI       20.90   1.000   P
 WOJI       24.20   1.000   P
 PWJI       35.80   1.000   S
 TBJI       37.60   1.000   P
 GRJI       40.10   1.000   P
 WOJI       42.50   1.000   S
# 2014 10 03 04 57 29.4  -09.25    110.37     51.0  4.6   0.0   0.0   0.330       484
 WOJI       24.20   1.000   P
 PWJI       29.10   1.000   P
 TBJI       43.00   1.000   P
 WOJI       43.60   1.000   S
 GRJI       47.10   1.000   P
 GMJI       48.30   1.000   P
# 2014 10 03 05 26 29.2  -09.24    110.39     10.0  4.4   0.0   0.0   0.853       485
 WOJI       26.50   1.000   P
 PWJI       30.50   1.000   P
 GRJI       49.10   1.000   P
 GMJI       49.30   1.000   P
# 2014 10 03 06 29 49.6  -09.14    110.50     11.0  3.3   0.0   0.0   0.208       486
 WOJI       24.80   1.000   P
 PWJI       29.50   1.000   P
 WOJI       42.90   1.000   S
 PWJI       51.80   1.000   S
# 2014 10 03 08 50 24.1  -09.13    110.38     10.0  3.7   0.0   0.0   0.441       487
 WOJI       24.70   1.000   P
 PWJI       30.80   1.000   P
 WOJI       44.70   1.000   S
 GRJI       48.10   1.000   P
 GMJI       49.70   1.000   P
# 2014 10 03 11 30 06.6  -09.25    110.34     10.0  3.6   0.0   0.0   0.521       488
 WOJI       25.90   1.000   P
 PWJI       32.00   1.000   P
 WOJI       47.40   1.000   S
 GRJI       49.80   1.000   P
 GMJI       50.90   1.000   P
# 2014 10 03 16 06 45.3  -09.04    110.49     10.0  3.3   0.0   0.0   0.816       489
 WOJI       22.80   1.000   P
 PWJI       28.70   1.000   P
# 2014 10 05 08 15 09.9  -08.48    110.34     23.0  3.2   0.0   0.0   0.720       490
 WOJI       17.00   1.000   P
 PWJI       26.00   1.000   P
 WOJI       27.70   1.000   S
 PWJI       44.60   1.000   S
 GMJI       47.40   1.000   P
# 2014 10 06 19 29 03.6  -08.77    110.54     18.0  4.2   0.0   0.0   0.672       491
 WOJI       18.50   1.000   P
 PWJI       25.10   1.000   P
 TBJI       37.80   1.000   P
 PWJI       42.50   1.000   S
 GRJI       42.50   1.000   P
 GMJI       46.30   1.000   P
 BWJI       54.70   1.000   P
# 2014 10 12 05 24 49.3  -08.85    111.31     10.0  3.2   0.0   0.0   0.402       492
 PWJI       18.20   1.000   P
 WOJI       20.10   1.000   P
 SWJI       22.00   1.000   P
 PWJI       32.00   1.000   S
 WOJI       35.40   1.000   S
# 2014 10 14 00 50 21.5  -08.78    111.34    106.0  4.3   0.0   0.0   1.664       493
 PWJI       21.10   1.000   P
 WOJI       22.40   1.000   P
 SWJI       23.40   1.000   P
 TBJI       33.30   1.000   P
 GRJI       35.70   1.000   P
 PWJI       35.70   1.000   S
 SWJI       40.00   1.000   S
 TBJI       56.80   1.000   S
 GRJI       58.40   1.000   S
# 2014 10 19 05 52 53.9  -08.62    112.65     66.0  3.1   0.0   0.0   0.422       494
 GMJI       17.00   1.000   P
 PWJI       18.90   1.000   P
 SWJI       21.90   1.000   P
 GRJI       27.30   1.000   P
 GMJI       30.30   1.000   S
 WOJI       30.50   1.000   P
 PWJI       33.40   1.000   S
 SWJI       38.50   1.000   S
 GRJI       49.00   1.000   S
 WOJI       52.40   1.000   S
# 2014 10 22 07 34 43.4  -08.88    110.12     10.0  4.2   0.0   0.0   0.539       495
 WOJI       23.70   1.000   P
 PWJI       31.20   1.000   P
 SWJI       33.50   1.000   P
 WOJI       40.60   1.000   S
 GRJI       48.40   1.000   P
 GMJI       52.10   1.000   P
# 2014 10 24 03 31 36.3  -07.59    111.76     10.0  3.2   0.0   0.0   0.560       496
 SWJI        4.20   1.000   P
 SWJI        7.60   1.000   S
 PWJI        8.70   1.000   P
 PWJI       14.70   1.000   S
 TBJI       15.20   1.000   P
 GRJI       18.50   1.000   P
 TBJI       25.80   1.000   S
 GMJI       31.80   1.000   P
 GRJI       32.90   1.000   S
# 2014 10 24 03 57 09.6  -07.60    111.75     10.0  3.3   0.0   0.0   0.637       497
 SWJI        3.70   1.000   P
 SWJI        7.60   1.000   S
 PWJI        8.20   1.000   P
 PWJI       14.70   1.000   S
 TBJI       15.00   1.000   P
 WOJI       16.20   1.000   P
 GRJI       18.40   1.000   P
 TBJI       25.70   1.000   S
 GMJI       32.10   1.000   P
 GRJI       33.00   1.000   S
# 2014 10 26 08 56 41.6  -10.32    112.76     29.0  5.1   0.0   0.0   1.373       498
 SWJI       41.40   1.000   P
 WOJI       45.00   1.000   P
 SWJI       74.50   1.000   S
 WOJI       79.80   1.000   S
# 2014 10 26 09 07 27.3  -10.20    112.71     28.0  5.0   0.0   0.0   1.469       499
 SWJI       40.30   1.000   P
 WOJI       44.00   1.000   P
 WOJI       78.90   1.000   S
# 2014 10 26 23 24 53.1  -10.35    112.77     14.0  4.6   0.0   0.0   0.343       500
 SWJI       43.70   1.000   P
 WOJI       47.90   1.000   P
# 2014 10 27 03 40 43.7  -10.33    112.77     10.0  4.3   0.0   0.0   0.675       501
 GMJI       34.80   1.000   P
 PWJI       39.90   1.000   P
 SWJI       45.20   1.000   P
 WOJI       48.60   1.000   P
 GRJI       54.40   1.000   P
 GMJI       59.60   1.000   S
 PWJI       67.70   1.000   S
 GRJI       93.70   1.000   S
 TBJI       99.40   1.000   P
# 2014 10 28 15 36 23.1  -07.98    110.50     10.0  3.2   0.0   0.0   1.011       502
 WOJI        8.60   1.000   P
 WOJI       14.90   1.000   S
 PWJI       22.40   1.000   P
 GRJI       37.70   1.000   P
# 2014 11 01 08 43 54.9  -08.79    111.60     35.0  3.2   0.0   0.0   0.151       503
 PWJI       15.20   1.000   P
 WOJI       20.10   1.000   P
 PWJI       26.70   1.000   S
 GMJI       29.90   1.000   P
 TBJI       31.10   1.000   P
 WOJI       35.20   1.000   S
 GMJI       53.50   1.000   S
# 2014 11 01 22 40 30.7  -08.77    110.64     12.0  3.5   0.0   0.0   1.132       504
 WOJI       18.60   1.000   P
 PWJI       24.80   1.000   P
 WOJI       30.80   1.000   S
 PWJI       40.80   1.000   S
 GRJI       42.70   1.000   P
 GMJI       46.00   1.000   P
# 2014 11 04 05 03 08.5  -07.89    112.98     11.0  3.4   0.0   0.0   0.778       505
 GMJI       11.10   1.000   P
 GRJI       19.80   1.000   P
 PWJI       21.50   1.000   P
 TBJI       26.00   1.000   P
 GRJI       36.50   1.000   S
# 2014 11 15 07 42 07.1  -09.12    112.81     10.0  3.8   0.0   0.0   1.296       506
 GMJI       19.60   1.000   P
 PWJI       26.60   1.000   P
 GMJI       33.60   1.000   S
 WOJI       36.80   1.000   P
 PWJI       45.40   1.000   S
 WOJI       66.50   1.000   S
# 2014 11 21 23 23 23.9  -08.95    111.35     25.0  3.5   0.0   0.0   0.279       507
 PWJI       18.70   1.000   P
 WOJI       20.80   1.000   P
 PWJI       32.50   1.000   S
 GMJI       34.60   1.000   P
 GRJI       36.40   1.000   P
 WOJI       36.70   1.000   S
# 2014 11 28 05 27 57.2  -08.94    112.48     10.0  4.2   0.0   0.0   0.894       508
 GMJI       20.70   1.000   P
 PWJI       21.50   1.000   P
 WOJI       32.80   1.000   P
 GRJI       35.30   1.000   P
 PWJI       35.60   1.000   S
 TBJI       37.30   1.000   P
 WOJI       56.30   1.000   S
 GRJI       60.40   1.000   S
# 2014 12 04 12 06 33.2  -07.25    111.58     19.0  3.1   0.0   0.0   0.246       509
 TBJI       10.90   1.000   P
 PWJI       15.40   1.000   P
 GRJI       17.80   1.000   P
 WOJI       29.00   1.000   P
# 2014 12 12 13 58 26.8  -07.15    110.05     10.0  3.4   0.0   0.0   0.649       510
 NGJI       26.60   1.000   P
 TBJI       31.50   1.000   P
 PWJI       33.20   1.000   P
 GRJI       39.60   1.000   P
 BWJI       47.60   1.000   P
 GRJI       71.30   1.000   S
# 2014 12 15 11 29 59.9  -09.07    110.43     10.0  3.8   0.0   0.0   1.010       511
 WOJI       24.50   1.000   P
 PWJI       29.60   1.000   P
 WOJI       42.60   1.000   S
 PWJI       51.10   1.000   S
# 2014 12 16 09 46 29.1  -09.04    110.38     10.0  3.7   0.0   0.0   0.828       512
 WOJI       23.60   1.000   P
 PWJI       29.80   1.000   P
 SWJI       32.30   1.000   P
 WOJI       41.10   1.000   S
 GMJI       50.50   1.000   P
 PWJI       52.90   1.000   S
 SWJI       57.60   1.000   S
# 2014 12 18 01 28 32.7  -08.93    110.22     19.0  4.2   0.0   0.0   0.733       513
 PWJI       29.00   1.000   P
 GRJI       47.00   1.000   P
# 2014 12 21 01 31 28.2  -07.86    111.30     22.0  3.3   0.0   0.0   0.247       514
 SWJI       10.60   1.000   P
 PWJI       11.50   1.000   P
 NGJI       11.80   1.000   P
 PWJI       19.90   1.000   S
 TBJI       20.80   1.000   P
 GRJI       26.00   1.000   P
 TBJI       36.40   1.000   S
# 2014 12 23 07 56 26.7  -07.91    112.99     10.0  3.0   0.0   0.0   0.407       515
 GRJI       20.10   1.000   P
 PWJI       22.00   1.000   P
 SWJI       23.00   1.000   P
 GRJI       36.20   1.000   S
 PWJI       37.80   1.000   S
# 2015 01 05 10 27 05.4  -08.47    111.92     77.0  3.6   0.0   0.0   0.903       516
 PWJI       14.20   1.000   P
 SWJI       16.70   1.000   P
 NGJI       21.40   1.000   P
 PWJI       24.80   1.000   S
 GMJI       25.20   1.000   P
 GRJI       27.20   1.000   P
 SWJI       29.70   1.000   S
 GMJI       46.50   1.000   S
# 2015 01 05 22 59 14.6  -08.88    110.39     53.0  3.4   0.0   0.0   0.624       517
 PWJI       26.40   1.000   P
 SWJI       28.90   1.000   P
 PWJI       46.10   1.000   S
# 2015 01 08 20 08 50.1  -09.35    111.71     12.0  3.7   0.0   0.0   0.704       518
 PWJI       23.50   1.000   P
 SWJI       27.90   1.000   P
 PWJI       41.40   1.000   S
 GRJI       42.70   1.000   P
# 2015 01 08 20 20 26.8  -09.43    111.67     10.0  3.7   0.0   0.0   0.901       519
 PWJI       23.80   1.000   P
 SWJI       28.50   1.000   P
 GRJI       43.90   1.000   P
 PWJI       44.20   1.000   S
 SWJI       51.60   1.000   S
# 2015 01 14 08 01 30.9  -09.50    112.87     30.0  4.6   0.0   0.0   0.819       520
 GMJI       20.80   1.000   P
 PWJI       27.40   1.000   P
 SWJI       32.90   1.000   P
 WOJI       37.60   1.000   P
 GMJI       37.80   1.000   S
 GRJI       38.00   1.000   P
 NGJI       39.60   1.000   P
 TBJI       43.20   1.000   P
 PWJI       50.10   1.000   S
 WOJI       68.50   1.000   S
 NGJI       69.60   1.000   S
# 2015 01 14 10 35 25.5  -09.50    112.89     10.0  4.1   0.0   0.0   0.891       521
 GMJI       23.90   1.000   P
 PWJI       30.00   1.000   P
 SWJI       34.90   1.000   P
 NGJI       41.60   1.000   P
 GRJI       43.10   1.000   P
# 2015 01 14 11 55 46.6  -09.36    112.86     13.0  3.8   0.0   0.0   0.751       522
 GMJI       22.10   1.000   P
 PWJI       28.40   1.000   P
 SWJI       32.50   1.000   P
 GMJI       38.60   1.000   S
 GRJI       39.50   1.000   P
 NGJI       40.30   1.000   P
 PWJI       50.40   1.000   S
 SWJI       57.80   1.000   S
# 2015 01 15 13 18 36.1  -09.42    112.85     10.0  4.3   0.0   0.0   0.908       523
 GMJI       22.80   1.000   P
 PWJI       29.80   1.000   P
 SWJI       33.90   1.000   P
 PWJI       52.00   1.000   S
# 2015 01 22 07 08 42.7  -11.28    112.44     33.0  4.4   0.0   0.0   0.146       524
 SWJI       53.40   1.000   P
 WOJI       55.70   1.000   P
 SWJI       95.30   1.000   S
# 2015 01 26 07 23 44.8  -07.21    112.30     10.0  4.0   0.0   0.0   0.941       525
 TBJI       11.40   1.000   P
 SWJI       15.30   1.000   P
 TBJI       21.20   1.000   S
 SWJI       23.30   1.000   S
 WOJI       26.20   1.000   P
 WOJI       47.40   1.000   S
# 2015 02 15 17 20 57.3  -08.93    111.14     70.0  3.9   0.0   0.0   0.496       526
 SWJI       22.40   1.000   P
# 2015 02 17 15 00 30.2  -09.54    112.75     16.0  3.7   0.0   0.0   0.331       527
 SWJI       33.30   1.000   P
 SWJI       59.60   1.000   S
# 2015 03 04 18 32 03.1  -08.95    111.23     10.0  4.8   0.0   0.0   0.950       528
 SWJI       23.20   1.000   P
 SWJI       41.30   1.000   S
# 2015 03 06 13 15 08.6  -09.60    112.82     10.0  4.4   0.0   0.0   1.021       529
 SWJI       36.10   1.000   P
 SWJI       61.90   1.000   S
# 2015 03 06 13 34 26.6  -09.64    112.84     10.0  3.9   0.0   0.0   0.619       530
 SWJI       36.00   1.000   P
# 2015 03 07 21 49 43.8  -05.98    110.85    553.0  4.4   0.0   0.0   0.739       531
 SWJI       70.50   1.000   P
 SWJI      126.70   1.000   S
# 2015 03 10 23 31 21.1  -08.67    112.56    133.0  4.8   0.0   0.0   1.468       532
 SWJI       25.70   1.000   P
 SWJI       43.70   1.000   S
# 2015 03 15 13 24 43.7  -09.38    110.36     10.0  4.0   0.0   0.0   0.733       533
 SWJI       34.90   1.000   P
# 2015 03 15 19 39 50.7  -09.67    112.80     10.0  4.1   0.0   0.0   0.646       534
 SWJI       36.40   1.000   P
# 2015 03 15 21 19 12.5  -09.78    112.82     10.0  5.3   0.0   0.0   1.484       535
 SWJI       36.40   1.000   P
# 2015 03 15 21 42 58.3  -09.63    112.81     10.0  3.8   0.0   0.0   0.748       536
 SWJI       36.00   1.000   P
# 2015 03 15 22 22 39.1  -09.60    112.86     10.0  3.7   0.0   0.0   0.554       537
 SWJI       35.80   1.000   P
# 2015 03 16 01 39 43.3  -09.76    112.81     10.0  4.3   0.0   0.0   0.659       538
 SWJI       36.70   1.000   P
# 2015 03 17 06 46 17.5  -09.00    111.14     12.0  3.8   0.0   0.0   0.697       539
 SWJI       24.40   1.000   P
# 2015 03 25 04 18 44.2  -09.18    110.30     10.0  3.9   0.0   0.0   1.056       540
 SWJI       33.90   1.000   P
 SWJI       59.30   1.000   S
# 2015 03 26 04 49 19.8  -07.81    110.33     10.0  2.5   0.0   0.0   0.093       541
# 2015 04 03 01 27 48.9  -09.04    111.32     17.0  3.7   0.0   0.0   0.745       542
 SWJI       24.20   1.000   P
 SWJI       42.10   1.000   S
# 2015 04 05 12 22 12.2  -09.42    110.34     10.0  4.1   0.0   0.0   0.928       543
 SWJI       36.40   1.000   P
 SWJI       63.30   1.000   S
# 2015 04 05 13 00 45.2  -09.47    110.34     47.0  4.7   0.0   0.0   1.136       544
 SWJI       32.10   1.000   P
# 2015 04 05 13 49 56.6  -09.35    110.38     10.0  4.0   0.0   0.0   0.448       545
 SWJI       35.60   1.000   P
# 2015 04 06 02 12 50.4  -09.44    110.35     10.0  4.7   0.0   0.0   0.926       546
 SWJI       36.70   1.000   P
# 2015 04 06 02 35 17.8  -09.41    110.36     18.0  4.6   0.0   0.0   0.943       547
 SWJI       34.90   1.000   P
 SWJI       59.10   1.000   S
# 2015 04 06 10 48 26.1  -09.53    110.50     10.0  4.5   0.0   0.0   1.411       548
 SWJI       37.00   1.000   P
 SWJI       62.10   1.000   S
# 2015 04 06 11 50 16.5  -09.25    110.38     28.0  3.5   0.0   0.0   0.478       549
 SWJI       32.20   1.000   P
 SWJI       57.40   1.000   S
# 2015 04 08 17 34 32.2  -08.44    112.08    164.0  3.0   0.0   0.0   0.269       550
 SWJI       25.10   1.000   P
# 2015 04 08 18 32 36.9  -09.01    110.31     10.0  4.2   0.0   0.0   1.661       551
# 2015 04 28 17 59 49.6  -10.98    111.37    129.0  4.2   0.0   0.0   1.214       552
 SWJI       49.30   1.000   P
 SWJI       89.00   1.000   S
# 2015 05 01 02 46 22.5  -09.56    112.83     65.0  5.0   0.0   0.0   1.686       553
 SWJI       33.00   1.000   P
# 2015 05 02 18 31 51.1  -09.09    111.46     10.0  3.5   0.0   0.0   0.564       554
 SWJI       24.70   1.000   P
# 2015 05 09 21 22 15.8  -09.19    112.81     10.0  4.3   0.0   0.0   0.361       555
 PWJI       26.70   1.000   P
 SWJI       30.70   1.000   P
# 2015 05 10 01 02 24.5  -08.83    110.33     19.0  4.2   0.0   0.0   0.126       556
 PWJI       27.80   1.000   P
 SWJI       30.10   1.000   P
# 2015 05 13 08 00 53.5  -08.40    110.27     76.0  4.5   0.0   0.0   0.605       557
 PWJI       26.00   1.000   P
 SWJI       27.10   1.000   P
 PWJI       45.20   1.000   S
 SWJI       47.00   1.000   S
# 2015 05 18 15 19 45.9  -09.42    112.88     10.0  3.8   0.0   0.0   0.882       558
 PWJI       30.80   1.000   P
 SWJI       34.40   1.000   P
 PWJI       51.90   1.000   S
# 2015 05 18 18 39 03.2  -07.47    111.82     10.0  2.8   0.0   0.0   0.333       559
 SWJI        6.30   1.000   P
 PWJI       10.70   1.000   P
 SWJI       11.40   1.000   S
 TBJI       13.10   1.000   P
 PWJI       19.50   1.000   S
# 2015 05 18 23 29 27.4  -06.07    111.21     17.0  4.0   0.0   0.0   0.968       560
 TBJI       18.10   1.000   P
 SWJI       29.90   1.000   P
 TBJI       31.50   1.000   S
 PWJI       33.40   1.000   P
 SWJI       52.20   1.000   S
 PWJI       58.50   1.000   S
# 2015 05 28 06 05 43.9  -08.07    110.50     10.0  3.7   0.0   0.0   0.459       561
 PWJI       23.50   1.000   P
 SWJI       23.80   1.000   P
 PWJI       40.90   1.000   S
# 2015 05 30 20 51 16.5  -09.03    110.30     67.0  4.9   0.0   0.0   0.837       562
 PWJI       29.10   1.000   P
 SWJI       31.00   1.000   P
 TBJI       40.90   1.000   P
 PWJI       50.00   1.000   S
# 2015 05 31 19 48 08.9  -08.81    110.89     15.0  3.8   0.0   0.0   0.742       563
 PWJI       21.90   1.000   P
 SWJI       24.30   1.000   P
 TBJI       36.20   1.000   P
 PWJI       36.60   1.000   S
# 2015 05 31 22 15 08.8  -08.01    110.53     10.0  3.1   0.0   0.0   0.444       564
 SWJI       22.80   1.000   P
 PWJI       23.20   1.000   P
 PWJI       40.30   1.000   S
# 2015 06 01 23 12 17.1  -07.34    110.46    237.0  3.8   0.0   0.0   0.608       565
 TBJI       36.40   1.000   P
 SWJI       37.00   1.000   P
 PWJI       37.50   1.000   P
 PWJI       67.30   1.000   S
# 2015 06 02 23 57 54.5  -08.15    111.39    131.0  4.1   0.0   0.0   0.520       566
 SWJI       19.40   1.000   P
 PWJI       20.00   1.000   P
 PWJI       35.10   1.000   S
# 2015 06 05 14 36 49.1  -06.28    111.22     26.0  3.9   0.0   0.0   0.408       567
 TBJI       15.20   1.000   P
 SWJI       26.00   1.000   P
 TBJI       27.00   1.000   S
# 2015 06 05 16 38 05.9  -09.26    111.50     10.0  5.0   0.0   0.0   0.693       568
 PWJI       22.20   1.000   P
 SWJI       26.40   1.000   P
 PWJI       38.30   1.000   S
 TBJI       40.00   1.000   P
# 2015 06 19 18 01 38.3  -08.79    110.54     20.0  3.8   0.0   0.0   0.376       569
 PCJI       16.70   1.000   P
 PWJI       25.30   1.000   P
 SWJI       27.50   1.000   P
 PCJI       28.10   1.000   S
 PWJI       43.30   1.000   S
 SWJI       48.20   1.000   S
# 2015 06 23 17 41 54.8  -08.75    111.46     29.0  2.5   0.0   0.0   0.180       570
 PCJI       13.20   1.000   P
 PWJI       15.30   1.000   P
 SWJI       18.90   1.000   P
 PWJI       26.70   1.000   S
 SWJI       33.10   1.000   S
# 2015 06 25 03 35 29.3  -07.76    111.70     10.0  4.2   0.0   0.0   1.072       571
 SWJI        2.20   1.000   P
 PWJI        6.10   1.000   P
 PCJI       13.60   1.000   P
# 2015 06 26 20 05 18.4  -08.99    111.23     10.0  4.1   0.0   0.0   0.633       572
 PCJI       15.70   1.000   P
 PWJI       20.70   1.000   P
 SWJI       24.30   1.000   P
 PCJI       26.50   1.000   S
 PWJI       34.20   1.000   S
 TBJI       37.40   1.000   P
 SWJI       44.20   1.000   S
# 2015 06 26 20 05 19.5  -08.91    111.19     16.0  4.1   0.0   0.0   0.447       573
 PCJI       14.50   1.000   P
 PWJI       19.30   1.000   P
 SWJI       23.40   1.000   P
 PCJI       24.60   1.000   S
 PWJI       34.10   1.000   S
 TBJI       35.80   1.000   P
 SWJI       41.80   1.000   S
